"page_url","location_name","street_address","city","state","zip","country_code","store_number","phone","location_type","latitude","longitude","locator_domain","hours_of_operation","raw_address","record_id"
"https://www.tforcefreight.com/ltl/apps/GetServiceCenterDetails?zip=351735178&country=US","BIRMINGHAM, AL","1690 FLOYD BRADFORD RD","TRUSSVILLE","AL","351735178","US","005-BHM","(800)333-7400","<MISSING>","<MISSING>","<MISSING>","www.tforcefreight.com","<MISSING>","<MISSING>","page_url"
"https://www.tforcefreight.com/ltl/apps/GetServiceCenterDetails?zip=356017115&country=US","DECATUR, AL","174 OLD HIGHWAY 24","DECATUR","AL","356017115","US","099-DCT","(800)333-7400","<MISSING>","<MISSING>","<MISSING>","www.tforcefreight.com","<MISSING>","<MISSING>","page_url"
"https://www.tforcefreight.com/ltl/apps/GetServiceCenterDetails?zip=363032805&country=US","DOTHAN, AL","1751 REEVES ST","DOTHAN","AL","363032805","US","160-DOT","(800)333-7400","<MISSING>","<MISSING>","<MISSING>","www.tforcefreight.com","<MISSING>","<MISSING>","page_url"
"https://www.tforcefreight.com/ltl/apps/GetServiceCenterDetails?zip=366121705&country=US","MOBILE, AL","3021 ANTON ST","MOBILE","AL","366121705","US","065-MBL","(800)333-7400","<MISSING>","<MISSING>","<MISSING>","www.tforcefreight.com","<MISSING>","<MISSING>","page_url"
"https://www.tforcefreight.com/ltl/apps/GetServiceCenterDetails?zip=36043&country=US","MONTGOMERY, AL","PO BOX 250127","MONTGOMERY","AL","36043","US","078-MNT","(800)333-7400","<MISSING>","<MISSING>","<MISSING>","www.tforcefreight.com","<MISSING>","<MISSING>","page_url"
"https://www.tforcefreight.com/ltl/apps/GetServiceCenterDetails?zip=995013130&country=US","ANCHORAGE, AK","3027 RAMPART DR","ANCHORAGE","AK","995013130","US","188-ANC","(800)333-7400","<MISSING>","<MISSING>","<MISSING>","www.tforcefreight.com","<MISSING>","<MISSING>","page_url"
"https://www.tforcefreight.com/ltl/apps/GetServiceCenterDetails?zip=980321809&country=US","JUNEAU, WA","8200 S 216TH ST","KENT","AK","980321809","US","343-JUN","(800)333-7400","<MISSING>","<MISSING>","<MISSING>","www.tforcefreight.com","<MISSING>","<MISSING>","page_url"
"https://www.tforcefreight.com/ltl/apps/GetServiceCenterDetails?zip=860048933&country=US","FLAGSTAFF, AZ","2300 E HUNTINGTON DR","FLAGSTAFF","AZ","860048933","US","428-FLA","(800)333-7400","<MISSING>","<MISSING>","<MISSING>","www.tforcefreight.com","<MISSING>","<MISSING>","page_url"
"https://www.tforcefreight.com/ltl/apps/GetServiceCenterDetails?zip=85034&country=US","KINGMAN, AZ","5500 W LOWER BUCKEYE RD","PHOENIX","AZ","85034","US","431-KNG","(800)333-7400","<MISSING>","<MISSING>","<MISSING>","www.tforcefreight.com","<MISSING>","<MISSING>","page_url"
"https://www.tforcefreight.com/ltl/apps/GetServiceCenterDetails?zip=850437901&country=US","PHOENIX, AZ","5500 W LOWER BUCKEYE RD","PHOENIX","AZ","850437901","US","451-PHO","(800)333-7400","<MISSING>","<MISSING>","<MISSING>","www.tforcefreight.com","<MISSING>","<MISSING>","page_url"
"https://www.tforcefreight.com/ltl/apps/GetServiceCenterDetails?zip=857451203&country=US","TUCSON, AZ","1871 W GRANT RD","TUCSON","AZ","857451203","US","443-TUC","(800)333-7400","<MISSING>","<MISSING>","<MISSING>","www.tforcefreight.com","<MISSING>","<MISSING>","page_url"
"https://www.tforcefreight.com/ltl/apps/GetServiceCenterDetails?zip=72206&country=US","LITTLE ROCK, AR","1913 E ROOSEVELT RD","LITTLE ROCK","AR","72206","US","084-LRK","(800)333-7400","<MISSING>","<MISSING>","<MISSING>","www.tforcefreight.com","<MISSING>","<MISSING>","page_url"
"https://www.tforcefreight.com/ltl/apps/GetServiceCenterDetails?zip=727459717&country=US","SPRINGDALE, AR","800 S LINCOLN ST","LOWELL","AR","727459717","US","161-SPD","(800)333-7400","<MISSING>","<MISSING>","<MISSING>","www.tforcefreight.com","<MISSING>","<MISSING>","page_url"
"https://www.tforcefreight.com/ltl/apps/GetServiceCenterDetails?zip=933055438&country=US","BAKERSFIELD, CA","600 WILLIAMS ST","BAKERSFIELD","CA","933055438","US","398-BFD","(800)333-7400","<MISSING>","<MISSING>","<MISSING>","www.tforcefreight.com","<MISSING>","<MISSING>","page_url"
"https://www.tforcefreight.com/ltl/apps/GetServiceCenterDetails?zip=923352200&country=US","FONTANA, CA","9880 BANANA AVE","FONTANA","CA","923352200","US","149-FON","(800)333-7400","<MISSING>","<MISSING>","<MISSING>","www.tforcefreight.com","<MISSING>","<MISSING>","page_url"
"https://www.tforcefreight.com/ltl/apps/GetServiceCenterDetails?zip=93725&country=US","NORTH FRESNO, CA","4587 S CHESTNUT AVE","FRESNO","CA","93725","US","448-FRE","(800)333-7400","<MISSING>","<MISSING>","<MISSING>","www.tforcefreight.com","<MISSING>","<MISSING>","page_url"
"https://www.tforcefreight.com/ltl/apps/GetServiceCenterDetails?zip=91746&country=US","APPR FORWARDERS, CA","2747 S VAIL AVE","COMMERCE","CA","91746","US","801-HIA","(800)333-7400","<MISSING>","<MISSING>","<MISSING>","www.tforcefreight.com","<MISSING>","<MISSING>","page_url"
"https://www.tforcefreight.com/ltl/apps/GetServiceCenterDetails?zip=922432548&country=US","IMPERIAL, CA","170 W COMMERCIAL AVE","EL CENTRO","CA","922432548","US","430-IMP","(800)333-7400","<MISSING>","<MISSING>","<MISSING>","www.tforcefreight.com","<MISSING>","<MISSING>","page_url"
"https://www.tforcefreight.com/ltl/apps/GetServiceCenterDetails?zip=93239&country=US","KETTLEMAN CITY, CA","3828 S PARKWAY DR","FRESNO","CA","93239","US","139-KET","(800)333-7400","<MISSING>","<MISSING>","<MISSING>","www.tforcefreight.com","<MISSING>","<MISSING>","page_url"
"https://www.tforcefreight.com/ltl/apps/GetServiceCenterDetails?zip=953309771&country=US","LATHROP, CA","1444 LATHROP RD","LATHROP","CA","953309771","US","432-LAT","(800)333-7400","<MISSING>","<MISSING>","<MISSING>","www.tforcefreight.com","<MISSING>","<MISSING>","page_url"
"https://www.tforcefreight.com/ltl/apps/GetServiceCenterDetails?zip=906604309&country=US","LOS ANGELES, CA","2747 S VAIL AVE","COMMERCE","CA","906604309","US","450-LAX","(800)333-7400","<MISSING>","<MISSING>","<MISSING>","www.tforcefreight.com","<MISSING>","<MISSING>","page_url"
"https://www.tforcefreight.com/ltl/apps/GetServiceCenterDetails?zip=90040&country=US","COMMERCE, CA","2747 S VAIL AVE","COMMERCE","CA","90040","US","105-LOS","(800)333-7400","<MISSING>","<MISSING>","<MISSING>","www.tforcefreight.com","<MISSING>","<MISSING>","page_url"
"https://www.tforcefreight.com/ltl/apps/GetServiceCenterDetails?zip=928315107&country=US","ORANGE COUNTY, CA","650 S ACACIA AVE","FULLERTON","CA","928315107","US","298-OCY","(800)333-7400","<MISSING>","<MISSING>","<MISSING>","www.tforcefreight.com","<MISSING>","<MISSING>","page_url"
"https://www.tforcefreight.com/ltl/apps/GetServiceCenterDetails?zip=930331732&country=US","OXNARD, CA","1260 S SAVIERS RD","OXNARD","CA","930331732","US","436-OXN","(800)333-7400","<MISSING>","<MISSING>","<MISSING>","www.tforcefreight.com","<MISSING>","<MISSING>","page_url"
"https://www.tforcefreight.com/ltl/apps/GetServiceCenterDetails?zip=96022&country=US","REDDING, CA","4575 LOCUST ROAD","COTTONWOOD","CA","96022","US","438-RDD","(800)333-7400","<MISSING>","<MISSING>","<MISSING>","www.tforcefreight.com","<MISSING>","<MISSING>","page_url"
"https://www.tforcefreight.com/ltl/apps/GetServiceCenterDetails?zip=954014702&country=US","REDWOOD, CA","35 FRANCES ST","SANTA ROSA","CA","954014702","US","412-RED","(800)333-7400","<MISSING>","<MISSING>","<MISSING>","www.tforcefreight.com","<MISSING>","<MISSING>","page_url"
"https://www.tforcefreight.com/ltl/apps/GetServiceCenterDetails?zip=923163257&country=US","RIALTO, CA","9880 BANANA AVE","FONTANA","CA","923163257","US","439-RIA","(800)333-7400","<MISSING>","<MISSING>","<MISSING>","www.tforcefreight.com","<MISSING>","<MISSING>","page_url"
"https://www.tforcefreight.com/ltl/apps/GetServiceCenterDetails?zip=956051615&country=US","N SACRAMENTO, CA","917 STILLWATER RD W","WEST SACRAMENTO","CA","956051615","US","454-SAC","(800)333-7400","<MISSING>","<MISSING>","<MISSING>","www.tforcefreight.com","<MISSING>","<MISSING>","page_url"
"https://www.tforcefreight.com/ltl/apps/GetServiceCenterDetails?zip=919143518&country=US","SOUTH SAN DIEGO, CA","2420 BOSWELL RD","CHULA VISTA","CA","919143518","US","455-SAN","(800)333-7400","<MISSING>","<MISSING>","<MISSING>","www.tforcefreight.com","<MISSING>","<MISSING>","page_url"
"https://www.tforcefreight.com/ltl/apps/GetServiceCenterDetails?zip=95826&country=US","S SACRAMENTO, CA","8233 BELVEDERE AVE","SACRAMENTO","CA","95826","US","113-SCM","(800)333-7400","<MISSING>","<MISSING>","<MISSING>","www.tforcefreight.com","<MISSING>","<MISSING>","page_url"
"https://www.tforcefreight.com/ltl/apps/GetServiceCenterDetails?zip=92121&country=US","NORTH SAN DIEGO, CA","7191 CARROLL RD","SAN DIEGO","CA","92121","US","104-SDG","(800)333-7400","<MISSING>","<MISSING>","<MISSING>","www.tforcefreight.com","<MISSING>","<MISSING>","page_url"
"https://www.tforcefreight.com/ltl/apps/GetServiceCenterDetails?zip=939089511&country=US","SALINAS, CA","20760 SPENCE RD","SALINAS","CA","939089511","US","463-SLN","(800)333-7400","<MISSING>","<MISSING>","<MISSING>","www.tforcefreight.com","<MISSING>","<MISSING>","page_url"
"https://www.tforcefreight.com/ltl/apps/GetServiceCenterDetails?zip=945775721&country=US","SAN LEANDRO, CA","3050 TEAGARDEN ST","SAN LEANDRO","CA","945775721","US","515-SLO","(800)333-7400","<MISSING>","<MISSING>","<MISSING>","www.tforcefreight.com","<MISSING>","<MISSING>","page_url"
"https://www.tforcefreight.com/ltl/apps/GetServiceCenterDetails?zip=930651601&country=US","SIMI VALLEY, CA","91 W EASY ST","SIMI VALLEY","CA","930651601","US","464-SMV","(800)333-7400","<MISSING>","<MISSING>","<MISSING>","www.tforcefreight.com","<MISSING>","<MISSING>","page_url"
"https://www.tforcefreight.com/ltl/apps/GetServiceCenterDetails?zip=954014210&country=US","SANTA ROSA, CA","35 FRANCES ST","SANTA ROSA","CA","954014210","US","441-SRO","(800)333-7400","<MISSING>","<MISSING>","<MISSING>","www.tforcefreight.com","<MISSING>","<MISSING>","page_url"
"https://www.tforcefreight.com/ltl/apps/GetServiceCenterDetails?zip=895123809&country=US","SUSANVILLE, NV","8900 TERABYTE DR","RENO","CA","895123809","US","034-SUS","(800)333-7400","<MISSING>","<MISSING>","<MISSING>","www.tforcefreight.com","<MISSING>","<MISSING>","page_url"
"https://www.tforcefreight.com/ltl/apps/GetServiceCenterDetails?zip=921212833&country=US","TECATE, CA","7191 CARROLL RD","SAN DIEGO","CA","921212833","US","490-TEC","(800)333-7400","<MISSING>","<MISSING>","<MISSING>","www.tforcefreight.com","<MISSING>","<MISSING>","page_url"
"https://www.tforcefreight.com/ltl/apps/GetServiceCenterDetails?zip=809151632&country=US","COLORADO SPGS, CO","2420 WAYSIDE CT","COLORADO SPRINGS","CO","809151632","US","472-COS","(800)333-7400","<MISSING>","<MISSING>","<MISSING>","www.tforcefreight.com","<MISSING>","<MISSING>","page_url"
"https://www.tforcefreight.com/ltl/apps/GetServiceCenterDetails?zip=800223827&country=US","DENVER, CO","5300 E 56TH AVE","COMMERCE CITY","CO","800223827","US","112-DVR","(800)333-7400","<MISSING>","<MISSING>","<MISSING>","www.tforcefreight.com","<MISSING>","<MISSING>","page_url"
"https://www.tforcefreight.com/ltl/apps/GetServiceCenterDetails?zip=80022&country=US","FT MORGAN, CO","5300 E 56TH AVE","COMMERCE CITY","CO","80022","US","497-FMO","(800)333-7400","<MISSING>","<MISSING>","<MISSING>","www.tforcefreight.com","<MISSING>","<MISSING>","page_url"
"https://www.tforcefreight.com/ltl/apps/GetServiceCenterDetails?zip=815057256&country=US","GRAND JUNCTION, CO","1547 INDEPENDENT AVE","GRAND JUNCTION","CO","815057256","US","416-GRJ","(800)333-7400","<MISSING>","<MISSING>","<MISSING>","www.tforcefreight.com","<MISSING>","<MISSING>","page_url"
"https://www.tforcefreight.com/ltl/apps/GetServiceCenterDetails?zip=800223928&country=US","SUMMIT, CO","5300 E 56TH AVE","COMMERCE CITY","CO","800223928","US","466-SUM","(800)333-7400","<MISSING>","<MISSING>","<MISSING>","www.tforcefreight.com","<MISSING>","<MISSING>","page_url"
"https://www.tforcefreight.com/ltl/apps/GetServiceCenterDetails?zip=06492&country=US","WALLINGFORD, CT","130 N PLAINS","WALLINGFORD","CT","06492","US","103-WFD","(800)333-7400","<MISSING>","<MISSING>","<MISSING>","www.tforcefreight.com","<MISSING>","<MISSING>","page_url"
"https://www.tforcefreight.com/ltl/apps/GetServiceCenterDetails?zip=330695106&country=US","FT LAUDERDALE, FL","1801 BLOUNT RD","POMPANO BEACH","FL","330695106","US","513-FLL","(800)333-7400","<MISSING>","<MISSING>","<MISSING>","www.tforcefreight.com","<MISSING>","<MISSING>","page_url"
"https://www.tforcefreight.com/ltl/apps/GetServiceCenterDetails?zip=339054900&country=US","FORT MYERS, FL","1660 BENCHMARK AVE","FT MYERS","FL","339054900","US","175-FTM","(800)333-7400","<MISSING>","<MISSING>","<MISSING>","www.tforcefreight.com","<MISSING>","<MISSING>","page_url"
"https://www.tforcefreight.com/ltl/apps/GetServiceCenterDetails?zip=322094400&country=US","JACKSONVILLE, FL","4600 WALGREEN RD","JACKSONVILLE","FL","322094400","US","036-JAX","(800)333-7400","<MISSING>","<MISSING>","<MISSING>","www.tforcefreight.com","<MISSING>","<MISSING>","page_url"
"https://www.tforcefreight.com/ltl/apps/GetServiceCenterDetails?zip=33167&country=US","KEY WEST, FL","1801 BLOUNT RD","POMPANO BEACH","FL","33167","US","279-KEW","(800)333-7400","<MISSING>","<MISSING>","<MISSING>","www.tforcefreight.com","<MISSING>","<MISSING>","page_url"
"https://www.tforcefreight.com/ltl/apps/GetServiceCenterDetails?zip=331664827&country=US","MIAMI, FL","5370 NW 74TH AVE","MIAMI","FL","331664827","US","123-MIA","(800)333-7400","<MISSING>","<MISSING>","<MISSING>","www.tforcefreight.com","<MISSING>","<MISSING>","page_url"
"https://www.tforcefreight.com/ltl/apps/GetServiceCenterDetails?zip=344807574&country=US","OCALA, FL","2420 SE 52ND ST","OCALA","FL","344807574","US","174-OCA","(800)333-7400","<MISSING>","<MISSING>","<MISSING>","www.tforcefreight.com","<MISSING>","<MISSING>","page_url"
"https://www.tforcefreight.com/ltl/apps/GetServiceCenterDetails?zip=347613002&country=US","ORLANDO, FL","350 ENTERPRISE ST","OCOEE","FL","347613002","US","400-ORO","(800)333-7400","<MISSING>","<MISSING>","<MISSING>","www.tforcefreight.com","<MISSING>","<MISSING>","page_url"
"https://www.tforcefreight.com/ltl/apps/GetServiceCenterDetails?zip=33610&country=US","TAMPA, FL","3717 E LAKE AVE","TAMPA","FL","33610","US","085-TMP","(800)333-7400","<MISSING>","<MISSING>","<MISSING>","www.tforcefreight.com","<MISSING>","<MISSING>","page_url"
"https://www.tforcefreight.com/ltl/apps/GetServiceCenterDetails?zip=33404&country=US","WEST PALM BEACH, FL","1311 W 15TH ST","RIVIERA BEACH","FL","33404","US","158-WPB","(800)333-7400","<MISSING>","<MISSING>","<MISSING>","www.tforcefreight.com","<MISSING>","<MISSING>","page_url"
"https://www.tforcefreight.com/ltl/apps/GetServiceCenterDetails?zip=317948329&country=US","ALBANY, GA","267 JORDAN RD","TIFTON","GA","317948329","US","043-ALB","(800)333-7400","<MISSING>","<MISSING>","<MISSING>","www.tforcefreight.com","<MISSING>","<MISSING>","page_url"
"https://www.tforcefreight.com/ltl/apps/GetServiceCenterDetails?zip=303155724&country=US","ATLANTA METRO, GA","2427 MORELAND AVE SE","ATLANTA","GA","303155724","US","997-AMO","(800)333-7400","<MISSING>","<MISSING>","<MISSING>","www.tforcefreight.com","<MISSING>","<MISSING>","page_url"
"https://www.tforcefreight.com/ltl/apps/GetServiceCenterDetails?zip=298609230&country=US","AUGUSTA, SC","229 LAUREL LAKE DR","NORTH AUGUSTA","GA","298609230","US","014-AUG","(800)333-7400","<MISSING>","<MISSING>","<MISSING>","www.tforcefreight.com","<MISSING>","<MISSING>","page_url"
"https://www.tforcefreight.com/ltl/apps/GetServiceCenterDetails?zip=301618253&country=US","BLUE RIDGE, GA","8550 COBB INT'L BLVD NW","KENNESAW","GA","301618253","US","324-BLR","(800)333-7400","<MISSING>","<MISSING>","<MISSING>","www.tforcefreight.com","<MISSING>","<MISSING>","page_url"
"https://www.tforcefreight.com/ltl/apps/GetServiceCenterDetails?zip=368693660&country=US","COLUMBUS, AL","900 BRICKYARD RD","PHENIX CITY","GA","368693660","US","033-CBS","(800)333-7400","<MISSING>","<MISSING>","<MISSING>","www.tforcefreight.com","<MISSING>","<MISSING>","page_url"
"https://www.tforcefreight.com/ltl/apps/GetServiceCenterDetails?zip=31206&country=US","MACON, GA","475 GUY PAINE RD","MACON","GA","31206","US","019-MAC","(800)333-7400","<MISSING>","<MISSING>","<MISSING>","www.tforcefreight.com","<MISSING>","<MISSING>","page_url"
"https://www.tforcefreight.com/ltl/apps/GetServiceCenterDetails?zip=301524392&country=US","MARIETTA, GA","8550 COBB INT'L BLVD NW","KENNESAW","GA","301524392","US","170-MAR","(800)333-7400","<MISSING>","<MISSING>","<MISSING>","www.tforcefreight.com","<MISSING>","<MISSING>","page_url"
"https://www.tforcefreight.com/ltl/apps/GetServiceCenterDetails?zip=300462801&country=US","NORTH ATLANTA, GA","775 MARATHON PKWY","LAWRENCEVILLE","GA","300462801","US","154-NOA","(800)333-7400","<MISSING>","<MISSING>","<MISSING>","www.tforcefreight.com","<MISSING>","<MISSING>","page_url"
"https://www.tforcefreight.com/ltl/apps/GetServiceCenterDetails?zip=314083552&country=US","SAVANNAH, GA","1503 LISSNER AVE","SAVANNAH","GA","314083552","US","018-SAV","(800)333-7400","<MISSING>","<MISSING>","<MISSING>","www.tforcefreight.com","<MISSING>","<MISSING>","page_url"
"https://www.tforcefreight.com/ltl/apps/GetServiceCenterDetails?zip=96913&country=US","GUAM, GU","2552 W WOODLAND DR","ANAHEIM","GU","96913","US","341-GUA","(800)333-7400","<MISSING>","<MISSING>","<MISSING>","www.tforcefreight.com","<MISSING>","<MISSING>","page_url"
"https://www.tforcefreight.com/ltl/apps/GetServiceCenterDetails?zip=967498013&country=US","HILO, HI","16-195 WILLIAMA STREET","KEAAU","HI","967498013","US","272-HIL","(800)333-7400","<MISSING>","<MISSING>","<MISSING>","www.tforcefreight.com","<MISSING>","<MISSING>","page_url"
"https://www.tforcefreight.com/ltl/apps/GetServiceCenterDetails?zip=968191915&country=US","HONOLULU, HI","3017 UALENA STREET","HONOLULU","HI","968191915","US","177-HON","(800)333-7400","<MISSING>","<MISSING>","<MISSING>","www.tforcefreight.com","<MISSING>","<MISSING>","page_url"
"https://www.tforcefreight.com/ltl/apps/GetServiceCenterDetails?zip=967668991&country=US","KAUAI, HI","1675 HALEUKANA STREET","LIHUE","HI","967668991","US","273-KAU","(800)333-7400","<MISSING>","<MISSING>","<MISSING>","www.tforcefreight.com","<MISSING>","<MISSING>","page_url"
"https://www.tforcefreight.com/ltl/apps/GetServiceCenterDetails?zip=967322383&country=US","MAUI, HI","400 HANA HIGHWAY SUITE D","KAHULUI","HI","967322383","US","274-MAU","(800)333-7400","<MISSING>","<MISSING>","<MISSING>","www.tforcefreight.com","<MISSING>","<MISSING>","page_url"
"https://www.tforcefreight.com/ltl/apps/GetServiceCenterDetails?zip=83709&country=US","BOISE, ID","2750 SATURN WAY","BOISE","ID","83709","US","424-BOI","(800)333-7400","<MISSING>","<MISSING>","<MISSING>","www.tforcefreight.com","<MISSING>","<MISSING>","page_url"
"https://www.tforcefreight.com/ltl/apps/GetServiceCenterDetails?zip=83201&country=US","IDAHO FALLS, ID","866 W CEDAR ST","POCATELLO","ID","83201","US","501-IDF","(800)333-7400","<MISSING>","<MISSING>","<MISSING>","www.tforcefreight.com","<MISSING>","<MISSING>","page_url"
"https://www.tforcefreight.com/ltl/apps/GetServiceCenterDetails?zip=99202&country=US","MOSCOW, WA","10424 W AERO ROAD","SPOKANE","ID","99202","US","500-MOS","(800)333-7400","<MISSING>","<MISSING>","<MISSING>","www.tforcefreight.com","<MISSING>","<MISSING>","page_url"
"https://www.tforcefreight.com/ltl/apps/GetServiceCenterDetails?zip=832016103&country=US","POCATELLO, ID","866 W CEDAR ST","POCATELLO","ID","832016103","US","437-POC","(800)333-7400","<MISSING>","<MISSING>","<MISSING>","www.tforcefreight.com","<MISSING>","<MISSING>","page_url"
"https://www.tforcefreight.com/ltl/apps/GetServiceCenterDetails?zip=833386131&country=US","TWIN FALLS, ID","134 BRIDON WAY","JEROME","ID","833386131","US","444-TWI","(800)333-7400","<MISSING>","<MISSING>","<MISSING>","www.tforcefreight.com","<MISSING>","<MISSING>","page_url"
"https://www.tforcefreight.com/ltl/apps/GetServiceCenterDetails?zip=605438801&country=US","AURORA, IL","175 KENDALL POINT DR","OSWEGO","IL","605438801","US","179-AUR","(800)333-7400","<MISSING>","<MISSING>","<MISSING>","www.tforcefreight.com","<MISSING>","<MISSING>","page_url"
"https://www.tforcefreight.com/ltl/apps/GetServiceCenterDetails?zip=606386014&country=US","CHICAGO, IL","6633 W 75TH ST","CHICAGO","IL","606386014","US","057-CGO","(800)333-7400","<MISSING>","<MISSING>","<MISSING>","www.tforcefreight.com","<MISSING>","<MISSING>","page_url"
"https://www.tforcefreight.com/ltl/apps/GetServiceCenterDetails?zip=625262818&country=US","DECATUR, IL","1680 HUBBARD AVE","DECATUR","IL","625262818","US","089-DEC","(800)333-7400","<MISSING>","<MISSING>","<MISSING>","www.tforcefreight.com","<MISSING>","<MISSING>","page_url"
"https://www.tforcefreight.com/ltl/apps/GetServiceCenterDetails?zip=628646724&country=US","MOUNT VERNON, IL","4712 BROADWAY ST","MOUNT VERNON","IL","628646724","US","056-MTV","(800)333-7400","<MISSING>","<MISSING>","<MISSING>","www.tforcefreight.com","<MISSING>","<MISSING>","page_url"
"https://www.tforcefreight.com/ltl/apps/GetServiceCenterDetails?zip=600677124&country=US","PALATINE, IL","750 S HICKS RD","PALATINE","IL","600677124","US","148-PAL","(800)333-7400","<MISSING>","<MISSING>","<MISSING>","www.tforcefreight.com","<MISSING>","<MISSING>","page_url"
"https://www.tforcefreight.com/ltl/apps/GetServiceCenterDetails?zip=616112007&country=US","PEORIA, IL","530 W CAMP ST","PEORIA","IL","616112007","US","517-PEO","(800)333-7400","<MISSING>","<MISSING>","<MISSING>","www.tforcefreight.com","<MISSING>","<MISSING>","page_url"
"https://www.tforcefreight.com/ltl/apps/GetServiceCenterDetails?zip=623058827&country=US","QUINCY, IL","2530 ELLINGTON RD","QUINCY","IL","623058827","US","523-QIL","(800)333-7400","<MISSING>","<MISSING>","<MISSING>","www.tforcefreight.com","<MISSING>","<MISSING>","page_url"
"https://www.tforcefreight.com/ltl/apps/GetServiceCenterDetails?zip=611092623&country=US","ROCKFORD, IL","4733 SANDY HOLLOW RD","ROCKFORD","IL","611092623","US","131-RFD","(800)333-7400","<MISSING>","<MISSING>","<MISSING>","www.tforcefreight.com","<MISSING>","<MISSING>","page_url"
"https://www.tforcefreight.com/ltl/apps/GetServiceCenterDetails?zip=612017401&country=US","ROCK ISLAND, IL","7805 31ST ST W","ROCK ISLAND","IL","612017401","US","135-RKI","(800)333-7400","<MISSING>","<MISSING>","<MISSING>","www.tforcefreight.com","<MISSING>","<MISSING>","page_url"
"https://www.tforcefreight.com/ltl/apps/GetServiceCenterDetails?zip=60473&country=US","SOUTH HOLLAND, IL","601 W 172ND ST","SOUTH HOLLAND","IL","60473","US","071-SOH","(800)333-7400","<MISSING>","<MISSING>","<MISSING>","www.tforcefreight.com","<MISSING>","<MISSING>","page_url"
"https://www.tforcefreight.com/ltl/apps/GetServiceCenterDetails?zip=477112952&country=US","EVANSVILLE, IN","2401 LYNCH RD","EVANSVILLE","IN","477112952","US","054-EVN","(800)333-7400","<MISSING>","<MISSING>","<MISSING>","www.tforcefreight.com","<MISSING>","<MISSING>","page_url"
"https://www.tforcefreight.com/ltl/apps/GetServiceCenterDetails?zip=468081007&country=US","FORT WAYNE, IN","3343 W COLISEUM BLVD","FORT WAYNE","IN","468081007","US","087-FTW","(800)333-7400","<MISSING>","<MISSING>","<MISSING>","www.tforcefreight.com","<MISSING>","<MISSING>","page_url"
"https://www.tforcefreight.com/ltl/apps/GetServiceCenterDetails?zip=46241&country=US","INDIANAPOLIS, IN","3747 W MORRIS ST","INDIANAPOLIS","IN","46241","US","061-IND","(800)333-7400","<MISSING>","<MISSING>","<MISSING>","www.tforcefreight.com","<MISSING>","<MISSING>","page_url"
"https://www.tforcefreight.com/ltl/apps/GetServiceCenterDetails?zip=46628&country=US","SOUTH BEND, IN","24955 US 20TH W","SOUTH BEND","IN","46628","US","088-SBD","(800)333-7400","<MISSING>","<MISSING>","<MISSING>","www.tforcefreight.com","<MISSING>","<MISSING>","page_url"
"https://www.tforcefreight.com/ltl/apps/GetServiceCenterDetails?zip=503131614&country=US","DES MOINES, IA","5570 NE 17TH ST","DES MOINES","IA","503131614","US","134-DES","(800)333-7400","<MISSING>","<MISSING>","<MISSING>","www.tforcefreight.com","<MISSING>","<MISSING>","page_url"
"https://www.tforcefreight.com/ltl/apps/GetServiceCenterDetails?zip=50316&country=US","WATERLOO, IA","5570 NE 17TH ST","DES MOINES","IA","50316","US","405-WOO","(800)333-7400","<MISSING>","<MISSING>","<MISSING>","www.tforcefreight.com","<MISSING>","<MISSING>","page_url"
"https://www.tforcefreight.com/ltl/apps/GetServiceCenterDetails?zip=66106&country=US","COLBY, KS","3800 KANSAS AVE","KANSAS CITY","KS","66106","US","375-CBY","(800)333-7400","<MISSING>","<MISSING>","<MISSING>","www.tforcefreight.com","<MISSING>","<MISSING>","page_url"
"https://www.tforcefreight.com/ltl/apps/GetServiceCenterDetails?zip=661061251&country=US","KANSAS CITY, KS","3800 KANSAS AVE","KANSAS CITY","KS","661061251","US","058-KAN","(800)333-7400","<MISSING>","<MISSING>","<MISSING>","www.tforcefreight.com","<MISSING>","<MISSING>","page_url"
"https://www.tforcefreight.com/ltl/apps/GetServiceCenterDetails?zip=672092811&country=US","WICHITA, KS","1601 S HOOVER RD","WICHITA","KS","672092811","US","091-WIT","(800)333-7400","<MISSING>","<MISSING>","<MISSING>","www.tforcefreight.com","<MISSING>","<MISSING>","page_url"
"https://www.tforcefreight.com/ltl/apps/GetServiceCenterDetails?zip=421047936&country=US","BOWLING GREEN, KY","655 BLUEGRASS FARMS BLVD","BOWLING GREEN","KY","421047936","US","064-BLG","(800)333-7400","<MISSING>","<MISSING>","<MISSING>","www.tforcefreight.com","<MISSING>","<MISSING>","page_url"
"https://www.tforcefreight.com/ltl/apps/GetServiceCenterDetails?zip=40509&country=US","LEXINGTON, KY","213/249 BLUE SKY PKWY","LEXINGTON","KY","40509","US","016-LEX","(800)333-7400","<MISSING>","<MISSING>","<MISSING>","www.tforcefreight.com","<MISSING>","<MISSING>","page_url"
"https://www.tforcefreight.com/ltl/apps/GetServiceCenterDetails?zip=402991906&country=US","LOUISVILLE, KY","9828 E BLUEGRASS PKWY","LOUISVILLE","KY","402991906","US","031-LVL","(800)333-7400","<MISSING>","<MISSING>","<MISSING>","www.tforcefreight.com","<MISSING>","<MISSING>","page_url"
"https://www.tforcefreight.com/ltl/apps/GetServiceCenterDetails?zip=420038903&country=US","PADUCAH, KY","7080 OLD BENTON RD","PADUCAH","KY","420038903","US","051-PDH","(800)333-7400","<MISSING>","<MISSING>","<MISSING>","www.tforcefreight.com","<MISSING>","<MISSING>","page_url"
"https://www.tforcefreight.com/ltl/apps/GetServiceCenterDetails?zip=71109&country=US","ALEXANDRIA, LA","2710 HOLLYWOOD AVE","SHREVEPORT","LA","71109","US","263-ALE","(800)333-7400","<MISSING>","<MISSING>","<MISSING>","www.tforcefreight.com","<MISSING>","<MISSING>","page_url"
"https://www.tforcefreight.com/ltl/apps/GetServiceCenterDetails?zip=707673840&country=US","BATON ROUGE, LA","4344 HOLLOWAY RD","PORT ALLEN","LA","707673840","US","067-BRG","(800)333-7400","<MISSING>","<MISSING>","<MISSING>","www.tforcefreight.com","<MISSING>","<MISSING>","page_url"
"https://www.tforcefreight.com/ltl/apps/GetServiceCenterDetails?zip=706153051&country=US","CAMERON, LA","4344 HOLLOWAY RD","PORT ALLEN","LA","706153051","US","374-CAM","(800)333-7400","<MISSING>","<MISSING>","<MISSING>","www.tforcefreight.com","<MISSING>","<MISSING>","page_url"
"https://www.tforcefreight.com/ltl/apps/GetServiceCenterDetails?zip=70129&country=US","NEW ORLEANS, LA","4201 INDUSTRIAL PKWY","NEW ORLEANS","LA","70129","US","066-NOR","(800)333-7400","<MISSING>","<MISSING>","<MISSING>","www.tforcefreight.com","<MISSING>","<MISSING>","page_url"
"https://www.tforcefreight.com/ltl/apps/GetServiceCenterDetails?zip=711083837&country=US","SHREVEPORT, LA","2710 HOLLYWOOD AVE","SHREVEPORT","LA","711083837","US","081-SHR","(800)333-7400","<MISSING>","<MISSING>","<MISSING>","www.tforcefreight.com","<MISSING>","<MISSING>","page_url"
"https://www.tforcefreight.com/ltl/apps/GetServiceCenterDetails?zip=04074&country=US","PORTLAND, ME","80 PLEASANT HILL RD","SCARBOROUGH","ME","04074","US","118-PME","(800)333-7400","<MISSING>","<MISSING>","<MISSING>","www.tforcefreight.com","<MISSING>","<MISSING>","page_url"
"https://www.tforcefreight.com/ltl/apps/GetServiceCenterDetails?zip=210755598&country=US","BALTIMORE, MD","6571 WASHINGTON BLVD","ELKRIDGE","MD","210755598","US","038-BAL","(800)333-7400","<MISSING>","<MISSING>","<MISSING>","www.tforcefreight.com","<MISSING>","<MISSING>","page_url"
"https://www.tforcefreight.com/ltl/apps/GetServiceCenterDetails?zip=215024544&country=US","CUMBERLAND, MD","PO BOX 2463","CUMBERLAND","MD","215024544","US","025-CUM","(800)333-7400","<MISSING>","<MISSING>","<MISSING>","www.tforcefreight.com","<MISSING>","<MISSING>","page_url"
"https://www.tforcefreight.com/ltl/apps/GetServiceCenterDetails?zip=219215042&country=US","ELKTON, MD","PO BOX 1356","ELKTON","MD","219215042","US","046-ELK","(800)333-7400","<MISSING>","<MISSING>","<MISSING>","www.tforcefreight.com","<MISSING>","<MISSING>","page_url"
"https://www.tforcefreight.com/ltl/apps/GetServiceCenterDetails?zip=216322666&country=US","FEDERALSBURG, MD","1100 INDUSTRIAL PARK RD","FEDERALSBURG","MD","216322666","US","063-FED","(800)333-7400","<MISSING>","<MISSING>","<MISSING>","www.tforcefreight.com","<MISSING>","<MISSING>","page_url"
"https://www.tforcefreight.com/ltl/apps/GetServiceCenterDetails?zip=217954026&country=US","HAGERSTOWN, MD","10146 GOVERNOR LANE BLVD","WILLIAMSPORT","MD","217954026","US","041-HAG","(800)333-7400","<MISSING>","<MISSING>","<MISSING>","www.tforcefreight.com","<MISSING>","<MISSING>","page_url"
"https://www.tforcefreight.com/ltl/apps/GetServiceCenterDetails?zip=025715028&country=US","HYANNIS, MA","1 EXPRESS DR","WAREHAM","MA","025715028","US","348-HYN","(800)333-7400","<MISSING>","<MISSING>","<MISSING>","www.tforcefreight.com","<MISSING>","<MISSING>","page_url"
"https://www.tforcefreight.com/ltl/apps/GetServiceCenterDetails?zip=01772&country=US","SOUTHBOROUGH, MA","185 BOSTON RD","SOUTHBOROUGH","MA","01772","US","108-SBR","(800)333-7400","<MISSING>","<MISSING>","<MISSING>","www.tforcefreight.com","<MISSING>","<MISSING>","page_url"
"https://www.tforcefreight.com/ltl/apps/GetServiceCenterDetails?zip=01104&country=US","SPRINGFIELD, MA","710 COTTAGE ST","SPRINGFIELD","MA","01104","US","120-SPR","(800)333-7400","<MISSING>","<MISSING>","<MISSING>","www.tforcefreight.com","<MISSING>","<MISSING>","page_url"
"https://www.tforcefreight.com/ltl/apps/GetServiceCenterDetails?zip=018642607&country=US","STONEHAM, MA","80 CONCORD ST","NORTH READING","MA","018642607","US","142-STO","(800)333-7400","<MISSING>","<MISSING>","<MISSING>","www.tforcefreight.com","<MISSING>","<MISSING>","page_url"
"https://www.tforcefreight.com/ltl/apps/GetServiceCenterDetails?zip=490152835&country=US","BATTLE CREEK, MI","1515 COLUMBIA AVE W","BATTLE CREEK","MI","490152835","US","116-BTL","(800)333-7400","<MISSING>","<MISSING>","<MISSING>","www.tforcefreight.com","<MISSING>","<MISSING>","page_url"
"https://www.tforcefreight.com/ltl/apps/GetServiceCenterDetails?zip=496019013&country=US","CADILLAC, MI","8121 E 34 RD","CADILLAC","MI","496019013","US","354-CAD","(800)333-7400","<MISSING>","<MISSING>","<MISSING>","www.tforcefreight.com","<MISSING>","<MISSING>","page_url"
"https://www.tforcefreight.com/ltl/apps/GetServiceCenterDetails?zip=481742442&country=US","DETROIT, MI","6150 INKSTER RD","ROMULUS","MI","481742442","US","107-DTR","(800)333-7400","<MISSING>","<MISSING>","<MISSING>","www.tforcefreight.com","<MISSING>","<MISSING>","page_url"
"https://www.tforcefreight.com/ltl/apps/GetServiceCenterDetails?zip=495441247&country=US","GRAND RAPIDS, MI","2693 COURIER DR NW","GRAND RAPIDS","MI","495441247","US","115-GDR","(800)333-7400","<MISSING>","<MISSING>","<MISSING>","www.tforcefreight.com","<MISSING>","<MISSING>","page_url"
"https://www.tforcefreight.com/ltl/apps/GetServiceCenterDetails?zip=486019258&country=US","SAGINAW, MI","3150 SAWYER DR","SAGINAW","MI","486019258","US","117-SGN","(800)333-7400","<MISSING>","<MISSING>","<MISSING>","www.tforcefreight.com","<MISSING>","<MISSING>","page_url"
"https://www.tforcefreight.com/ltl/apps/GetServiceCenterDetails?zip=498024435&country=US","SAULT STE MARIE, MI","821 EAST BLVD","KINGSFORD","MI","498024435","US","421-SSM","(800)333-7400","<MISSING>","<MISSING>","<MISSING>","www.tforcefreight.com","<MISSING>","<MISSING>","page_url"
"https://www.tforcefreight.com/ltl/apps/GetServiceCenterDetails?zip=558022641&country=US","DULUTH, MN","111 PORT TERMINAL RD","DULUTH","MN","558022641","US","258-DUL","(800)333-7400","<MISSING>","<MISSING>","<MISSING>","www.tforcefreight.com","<MISSING>","<MISSING>","page_url"
"https://www.tforcefreight.com/ltl/apps/GetServiceCenterDetails?zip=554496701&country=US","MINNEAPOLIS, MN","8500 NAPLES ST NE","BLAINE","MN","554496701","US","102-MIN","(800)333-7400","<MISSING>","<MISSING>","<MISSING>","www.tforcefreight.com","<MISSING>","<MISSING>","page_url"
"https://www.tforcefreight.com/ltl/apps/GetServiceCenterDetails?zip=55433&country=US","WINSTED, MN","8500 NAPLES ST NE","BLAINE","MN","55433","US","178-WIN","(800)333-7400","<MISSING>","<MISSING>","<MISSING>","www.tforcefreight.com","<MISSING>","<MISSING>","page_url"
"https://www.tforcefreight.com/ltl/apps/GetServiceCenterDetails?zip=392085514&country=US","JACKSON, MS","161 INDUSTRIAL PARK RD","PEARL","MS","392085514","US","079-JCK","(800)333-7400","<MISSING>","<MISSING>","<MISSING>","www.tforcefreight.com","<MISSING>","<MISSING>","page_url"
"https://www.tforcefreight.com/ltl/apps/GetServiceCenterDetails?zip=388018983&country=US","TUPELO, MS","PO BOX 2574","TUPELO","MS","388018983","US","093-TUP","(800)333-7400","<MISSING>","<MISSING>","<MISSING>","www.tforcefreight.com","<MISSING>","<MISSING>","page_url"
"https://www.tforcefreight.com/ltl/apps/GetServiceCenterDetails?zip=652022613&country=US","COLUMBIA, MO","3301 PARIS RD","COLUMBIA","MO","652022613","US","059-CLB","(800)333-7400","<MISSING>","<MISSING>","<MISSING>","www.tforcefreight.com","<MISSING>","<MISSING>","page_url"
"https://www.tforcefreight.com/ltl/apps/GetServiceCenterDetails?zip=661051106&country=US","CLINTON, KS","3800 KANSAS AVE","KANSAS CITY","MO","661051106","US","291-CLI","(800)333-7400","<MISSING>","<MISSING>","<MISSING>","www.tforcefreight.com","<MISSING>","<MISSING>","page_url"
"https://www.tforcefreight.com/ltl/apps/GetServiceCenterDetails?zip=64501&country=US","MARYVILLE, MO","3800 KANSAS AVE","KANSAS CITY","MO","64501","US","369-MRY","(800)333-7400","<MISSING>","<MISSING>","<MISSING>","www.tforcefreight.com","<MISSING>","<MISSING>","page_url"
"https://www.tforcefreight.com/ltl/apps/GetServiceCenterDetails?zip=638019353&country=US","SIKESTON, MO","P O BOX 487","SIKESTON","MO","638019353","US","124-SKS","(800)333-7400","<MISSING>","<MISSING>","<MISSING>","www.tforcefreight.com","<MISSING>","<MISSING>","page_url"
"https://www.tforcefreight.com/ltl/apps/GetServiceCenterDetails?zip=658035724&country=US","SPRINGFIELD, MO","2545 N LE COMPTE RD","SPRINGFIELD","MO","658035724","US","077-SMO","(800)333-7400","<MISSING>","<MISSING>","<MISSING>","www.tforcefreight.com","<MISSING>","<MISSING>","page_url"
"https://www.tforcefreight.com/ltl/apps/GetServiceCenterDetails?zip=631472337&country=US","SAINT LOUIS, MO","8500 N HALL ST","SAINT LOUIS","MO","631472337","US","055-STL","(800)333-7400","<MISSING>","<MISSING>","<MISSING>","www.tforcefreight.com","<MISSING>","<MISSING>","page_url"
"https://www.tforcefreight.com/ltl/apps/GetServiceCenterDetails?zip=59102&country=US","KALISPELL, MT","2660 GABLE RD","BILLINGS","MT","59102","US","468-KAL","(800)333-7400","<MISSING>","<MISSING>","<MISSING>","www.tforcefreight.com","<MISSING>","<MISSING>","page_url"
"https://www.tforcefreight.com/ltl/apps/GetServiceCenterDetails?zip=681271007&country=US","OMAHA, NE","10330 F ST","OMAHA","NE","681271007","US","133-OMA","(800)333-7400","<MISSING>","<MISSING>","<MISSING>","www.tforcefreight.com","<MISSING>","<MISSING>","page_url"
"https://www.tforcefreight.com/ltl/apps/GetServiceCenterDetails?zip=68848&country=US","SIDNEY, NE","911 E 11TH ST","KEARNEY","NE","68848","US","409-SID","(800)333-7400","<MISSING>","<MISSING>","<MISSING>","www.tforcefreight.com","<MISSING>","<MISSING>","page_url"
"https://www.tforcefreight.com/ltl/apps/GetServiceCenterDetails?zip=898014656&country=US","ELKO, NV","4470-A PIONEER WAY","ELKO","NV","898014656","US","426-EKO","(800)333-7400","<MISSING>","<MISSING>","<MISSING>","www.tforcefreight.com","<MISSING>","<MISSING>","page_url"
"https://www.tforcefreight.com/ltl/apps/GetServiceCenterDetails?zip=89301&country=US","ELY, NV","1020 N INDUSTRIAL WAY","ELY","NV","89301","US","458-ELY","(800)333-7400","<MISSING>","<MISSING>","<MISSING>","www.tforcefreight.com","<MISSING>","<MISSING>","page_url"
"https://www.tforcefreight.com/ltl/apps/GetServiceCenterDetails?zip=89415&country=US","HAWTHORNE, NV","PO BOX 117","HAWTHORNE","NV","89415","US","476-HAW","(800)333-7400","<MISSING>","<MISSING>","<MISSING>","www.tforcefreight.com","<MISSING>","<MISSING>","page_url"
"https://www.tforcefreight.com/ltl/apps/GetServiceCenterDetails?zip=891151846&country=US","LAS VEGAS, NV","4624 E CRAIG RD","LAS VEGAS","NV","891151846","US","449-LAS","(800)333-7400","<MISSING>","<MISSING>","<MISSING>","www.tforcefreight.com","<MISSING>","<MISSING>","page_url"
"https://www.tforcefreight.com/ltl/apps/GetServiceCenterDetails?zip=895215932&country=US","RENO, NV","8900 TERABYTE DR","RENO","NV","895215932","US","453-REN","(800)333-7400","<MISSING>","<MISSING>","<MISSING>","www.tforcefreight.com","<MISSING>","<MISSING>","page_url"
"https://www.tforcefreight.com/ltl/apps/GetServiceCenterDetails?zip=894459055&country=US","WINNEMUCCA, NV","4855 W WINNEMUCCA BLVD","WINNEMUCCA","NV","894459055","US","447-WNM","(800)333-7400","<MISSING>","<MISSING>","<MISSING>","www.tforcefreight.com","<MISSING>","<MISSING>","page_url"
"https://www.tforcefreight.com/ltl/apps/GetServiceCenterDetails?zip=030534402&country=US","MANCHESTER, NH","19 COMMERCE AVE","LONDONDERRY","NH","030534402","US","156-MCH","(800)333-7400","<MISSING>","<MISSING>","<MISSING>","www.tforcefreight.com","<MISSING>","<MISSING>","page_url"
"https://www.tforcefreight.com/ltl/apps/GetServiceCenterDetails?zip=070081227&country=US","CARTERET, NJ","1000 BLAIR RD","CARTERET","NJ","070081227","US","106-CRT","(800)333-7400","<MISSING>","<MISSING>","<MISSING>","www.tforcefreight.com","<MISSING>","<MISSING>","page_url"
"https://www.tforcefreight.com/ltl/apps/GetServiceCenterDetails?zip=070741805&country=US","MOONACHIE, NJ","280 MOONACHIE AVE","MOONACHIE","NJ","070741805","US","092-MOO","(800)333-7400","<MISSING>","<MISSING>","<MISSING>","www.tforcefreight.com","<MISSING>","<MISSING>","page_url"
"https://www.tforcefreight.com/ltl/apps/GetServiceCenterDetails?zip=081102630&country=US","PENNSAUKEN, NJ","1215 SHERMAN AVE","PENNSAUKEN","NJ","081102630","US","292-PEN","(800)333-7400","<MISSING>","<MISSING>","<MISSING>","www.tforcefreight.com","<MISSING>","<MISSING>","page_url"
"https://www.tforcefreight.com/ltl/apps/GetServiceCenterDetails?zip=87109&country=US","ALBUQUERQUE, NM","3700 HAWKINS NE","ALBUQUERQUE","NM","87109","US","187-ABQ","(800)333-7400","<MISSING>","<MISSING>","<MISSING>","www.tforcefreight.com","<MISSING>","<MISSING>","page_url"
"https://www.tforcefreight.com/ltl/apps/GetServiceCenterDetails?zip=87401&country=US","FARMINGTON, NM","2211 SAN JUAN BLVD","FARMINGTON","NM","87401","US","473-FAM","(800)333-7400","<MISSING>","<MISSING>","<MISSING>","www.tforcefreight.com","<MISSING>","<MISSING>","page_url"
"https://www.tforcefreight.com/ltl/apps/GetServiceCenterDetails?zip=121101558&country=US","ADIRONDACK, NY","11 APOLLO DR","ALBANY","NY","121101558","US","514-ADI","(800)333-7400","<MISSING>","<MISSING>","<MISSING>","www.tforcefreight.com","<MISSING>","<MISSING>","page_url"
"https://www.tforcefreight.com/ltl/apps/GetServiceCenterDetails?zip=122054603&country=US","ALBANY, NY","11 APOLLO DR","ALBANY","NY","122054603","US","122-ANY","(800)333-7400","<MISSING>","<MISSING>","<MISSING>","www.tforcefreight.com","<MISSING>","<MISSING>","page_url"
"https://www.tforcefreight.com/ltl/apps/GetServiceCenterDetails?zip=139043201&country=US","BINGHAMTON, NY","1001 MOOSIC RD","OLD FORGE","NY","139043201","US","141-BNG","(800)333-7400","<MISSING>","<MISSING>","<MISSING>","www.tforcefreight.com","<MISSING>","<MISSING>","page_url"
"https://www.tforcefreight.com/ltl/apps/GetServiceCenterDetails?zip=141507847&country=US","BUFFALO, NY","2580 KENMORE AVE","TONAWANDA","NY","141507847","US","121-BUF","(800)333-7400","<MISSING>","<MISSING>","<MISSING>","www.tforcefreight.com","<MISSING>","<MISSING>","page_url"
"https://www.tforcefreight.com/ltl/apps/GetServiceCenterDetails?zip=117061205&country=US","FARMINGDALE, NY","240A SKIP LN","BAY SHORE","NY","117061205","US","155-FRM","(800)333-7400","<MISSING>","<MISSING>","<MISSING>","www.tforcefreight.com","<MISSING>","<MISSING>","page_url"
"https://www.tforcefreight.com/ltl/apps/GetServiceCenterDetails?zip=109542931&country=US","NANUET, NY","80 W NYACK RD","NANUET","NY","109542931","US","029-NAN","(800)333-7400","<MISSING>","<MISSING>","<MISSING>","www.tforcefreight.com","<MISSING>","<MISSING>","page_url"
"https://www.tforcefreight.com/ltl/apps/GetServiceCenterDetails?zip=125492844&country=US","NEWBURGH, NY","645 NEELYTOWN RD","MONTGOMERY","NY","125492844","US","146-NBR","(800)333-7400","<MISSING>","<MISSING>","<MISSING>","www.tforcefreight.com","<MISSING>","<MISSING>","page_url"
"https://www.tforcefreight.com/ltl/apps/GetServiceCenterDetails?zip=13211&country=US","N NEW YORK, NY","6446 TERMINAL RD","EAST SYRACUSE","NY","13211","US","465-NNY","(800)333-7400","<MISSING>","<MISSING>","<MISSING>","www.tforcefreight.com","<MISSING>","<MISSING>","page_url"
"https://www.tforcefreight.com/ltl/apps/GetServiceCenterDetails?zip=11735&country=US","NYC, NY","240A SKIP LN","BAY SHORE","NY","11735","US","314-NYC","(800)333-7400","<MISSING>","<MISSING>","<MISSING>","www.tforcefreight.com","<MISSING>","<MISSING>","page_url"
"https://www.tforcefreight.com/ltl/apps/GetServiceCenterDetails?zip=11378&country=US","QUEENS, NY","46-60 55TH AVENUE","MASPETH","NY","11378","US","312-QNS","(800)333-7400","<MISSING>","<MISSING>","<MISSING>","www.tforcefreight.com","<MISSING>","<MISSING>","page_url"
"https://www.tforcefreight.com/ltl/apps/GetServiceCenterDetails?zip=146062708&country=US","ROCHESTER, NY","950 EMERSON ST","ROCHESTER","NY","146062708","US","126-RCH","(800)333-7400","<MISSING>","<MISSING>","<MISSING>","www.tforcefreight.com","<MISSING>","<MISSING>","page_url"
"https://www.tforcefreight.com/ltl/apps/GetServiceCenterDetails?zip=13057&country=US","SYRACUSE, NY","6446 TERMINAL RD","EAST SYRACUSE","NY","13057","US","127-SYR","(800)333-7400","<MISSING>","<MISSING>","<MISSING>","www.tforcefreight.com","<MISSING>","<MISSING>","page_url"
"https://www.tforcefreight.com/ltl/apps/GetServiceCenterDetails?zip=288032318&country=US","ASHEVILLE, NC","74 SWEETEN CREEK RD","ASHEVILLE","NC","288032318","US","012-ASH","(800)333-7400","<MISSING>","<MISSING>","<MISSING>","www.tforcefreight.com","<MISSING>","<MISSING>","page_url"
"https://www.tforcefreight.com/ltl/apps/GetServiceCenterDetails?zip=282694831&country=US","CHARLOTTE, NC","5204 N GRAHAM ST","CHARLOTTE","NC","282694831","US","004-CLT","(800)333-7400","<MISSING>","<MISSING>","<MISSING>","www.tforcefreight.com","<MISSING>","<MISSING>","page_url"
"https://www.tforcefreight.com/ltl/apps/GetServiceCenterDetails?zip=283015115&country=US","FAYETTEVILLE, NC","531 S EASTERN BLVD","FAYETTEVILLE","NC","283015115","US","032-FAY","(800)333-7400","<MISSING>","<MISSING>","<MISSING>","www.tforcefreight.com","<MISSING>","<MISSING>","page_url"
"https://www.tforcefreight.com/ltl/apps/GetServiceCenterDetails?zip=274079718&country=US","GREENSBORO, NC","4411 GROOMETOWN RD","GREENSBORO","NC","274079718","US","003-GBO","(800)333-7400","<MISSING>","<MISSING>","<MISSING>","www.tforcefreight.com","<MISSING>","<MISSING>","page_url"
"https://www.tforcefreight.com/ltl/apps/GetServiceCenterDetails?zip=286137560&country=US","HICKORY, NC","150 LAP RD","CONOVER","NC","286137560","US","011-HIC","(800)333-7400","<MISSING>","<MISSING>","<MISSING>","www.tforcefreight.com","<MISSING>","<MISSING>","page_url"
"https://www.tforcefreight.com/ltl/apps/GetServiceCenterDetails?zip=285017387&country=US","KINSTON, NC","2361 NC HIGHWAY 11 N","KINSTON","NC","285017387","US","035-KIN","(800)333-7400","<MISSING>","<MISSING>","<MISSING>","www.tforcefreight.com","<MISSING>","<MISSING>","page_url"
"https://www.tforcefreight.com/ltl/apps/GetServiceCenterDetails?zip=275608791&country=US","RALEIGH-DURHAM, NC","150 INTERNATIONAL DR","MORRISVILLE","NC","275608791","US","002-RDU","(800)333-7400","<MISSING>","<MISSING>","<MISSING>","www.tforcefreight.com","<MISSING>","<MISSING>","page_url"
"https://www.tforcefreight.com/ltl/apps/GetServiceCenterDetails?zip=284121811&country=US","WILMINGTON, NC","2815 CAROLINA BEACH RD","WILMINGTON","NC","284121811","US","020-WIL","(800)333-7400","<MISSING>","<MISSING>","<MISSING>","www.tforcefreight.com","<MISSING>","<MISSING>","page_url"
"https://www.tforcefreight.com/ltl/apps/GetServiceCenterDetails?zip=581024041&country=US","FARGO, ND","PO BOX 1058","BISMARCK","ND","581024041","US","328-FAR","(800)333-7400","<MISSING>","<MISSING>","<MISSING>","www.tforcefreight.com","<MISSING>","<MISSING>","page_url"
"https://www.tforcefreight.com/ltl/apps/GetServiceCenterDetails?zip=452411540&country=US","CINCINNATI, OH","3250 E KEMPER RD","SHARONVILLE","OH","452411540","US","039-CIN","(800)333-7400","<MISSING>","<MISSING>","<MISSING>","www.tforcefreight.com","<MISSING>","<MISSING>","page_url"
"https://www.tforcefreight.com/ltl/apps/GetServiceCenterDetails?zip=432324814&country=US","COLUMBUS, OH","3400 REFUGEE RD","COLUMBUS","OH","432324814","US","049-CMS","(800)333-7400","<MISSING>","<MISSING>","<MISSING>","www.tforcefreight.com","<MISSING>","<MISSING>","page_url"
"https://www.tforcefreight.com/ltl/apps/GetServiceCenterDetails?zip=454245144&country=US","DAYTON, OH","3730 VALLEY PIKE","DAYTON","OH","454245144","US","053-DAY","(800)333-7400","<MISSING>","<MISSING>","<MISSING>","www.tforcefreight.com","<MISSING>","<MISSING>","page_url"
"https://www.tforcefreight.com/ltl/apps/GetServiceCenterDetails?zip=44875&country=US","MANSFIELD, OH","350 MARTIN DR","SHELBY","OH","44875","US","097-MAN","(800)333-7400","<MISSING>","<MISSING>","<MISSING>","www.tforcefreight.com","<MISSING>","<MISSING>","page_url"
"https://www.tforcefreight.com/ltl/apps/GetServiceCenterDetails?zip=442869663&country=US","RICHFIELD, OH","3495 BRECKSVILLE RD","RICHFIELD","OH","442869663","US","299-RFL","(800)333-7400","<MISSING>","<MISSING>","<MISSING>","www.tforcefreight.com","<MISSING>","<MISSING>","page_url"
"https://www.tforcefreight.com/ltl/apps/GetServiceCenterDetails?zip=43607&country=US","TOLEDO, OH","3235 NEBRASKA AVE","TOLEDO","OH","43607","US","062-TOL","(800)333-7400","<MISSING>","<MISSING>","<MISSING>","www.tforcefreight.com","<MISSING>","<MISSING>","page_url"
"https://www.tforcefreight.com/ltl/apps/GetServiceCenterDetails?zip=444381336&country=US","YOUNGSTOWN, OH","7945 3RD ST","MASURY","OH","444381336","US","100-YGS","(800)333-7400","<MISSING>","<MISSING>","<MISSING>","www.tforcefreight.com","<MISSING>","<MISSING>","page_url"
"https://www.tforcefreight.com/ltl/apps/GetServiceCenterDetails?zip=74403&country=US","MUSKAGEE, OK","2319 N HARVARD","TULSA","OK","74403","US","373-MSK","(800)333-7400","<MISSING>","<MISSING>","<MISSING>","www.tforcefreight.com","<MISSING>","<MISSING>","page_url"
"https://www.tforcefreight.com/ltl/apps/GetServiceCenterDetails?zip=731272999&country=US","OKLAHOMA CITY, OK","9124 W RENO AVE","OKLAHOMA CITY","OK","731272999","US","052-OKC","(800)333-7400","<MISSING>","<MISSING>","<MISSING>","www.tforcefreight.com","<MISSING>","<MISSING>","page_url"
"https://www.tforcefreight.com/ltl/apps/GetServiceCenterDetails?zip=74115&country=US","TULSA, OK","2319 N HARVARD","TULSA","OK","74115","US","098-TUL","(800)333-7400","<MISSING>","<MISSING>","<MISSING>","www.tforcefreight.com","<MISSING>","<MISSING>","page_url"
"https://www.tforcefreight.com/ltl/apps/GetServiceCenterDetails?zip=97756&country=US","BEND, OR","229 SE FRANKLIN AVE","REDMOND","OR","97756","US","477-BEN","(800)333-7400","<MISSING>","<MISSING>","<MISSING>","www.tforcefreight.com","<MISSING>","<MISSING>","page_url"
"https://www.tforcefreight.com/ltl/apps/GetServiceCenterDetails?zip=974089495&country=US","EUGENE, OR","32912 ROBERTS CT","COBURG","OR","974089495","US","427-EUG","(800)333-7400","<MISSING>","<MISSING>","<MISSING>","www.tforcefreight.com","<MISSING>","<MISSING>","page_url"
"https://www.tforcefreight.com/ltl/apps/GetServiceCenterDetails?zip=978381771&country=US","HERMISTON, OR","1635 N 1ST PL","HERMISTON","OR","978381771","US","429-HER","(800)333-7400","<MISSING>","<MISSING>","<MISSING>","www.tforcefreight.com","<MISSING>","<MISSING>","page_url"
"https://www.tforcefreight.com/ltl/apps/GetServiceCenterDetails?zip=97210&country=US","KLAMATH FALLS, OR","1025 NE COLUMBIA BLVD","PORTLAND","OR","97210","US","488-KLF","(800)333-7400","<MISSING>","<MISSING>","<MISSING>","www.tforcefreight.com","<MISSING>","<MISSING>","page_url"
"https://www.tforcefreight.com/ltl/apps/GetServiceCenterDetails?zip=975263430&country=US","MEDFORD, OR","120 NW MORGAN LN","GRANTS PASS","OR","975263430","US","434-MED","(800)333-7400","<MISSING>","<MISSING>","<MISSING>","www.tforcefreight.com","<MISSING>","<MISSING>","page_url"
"https://www.tforcefreight.com/ltl/apps/GetServiceCenterDetails?zip=972111412&country=US","PORTLAND, OR","1025 NE COLUMBIA BLVD","PORTLAND","OR","972111412","US","137-POR","(800)333-7400","<MISSING>","<MISSING>","<MISSING>","www.tforcefreight.com","<MISSING>","<MISSING>","page_url"
"https://www.tforcefreight.com/ltl/apps/GetServiceCenterDetails?zip=972201084&country=US","SOUTH PORTLAND, OR","1025 NE COLUMBIA BLVD","PORTLAND","OR","972201084","US","452-PRT","(800)333-7400","<MISSING>","<MISSING>","<MISSING>","www.tforcefreight.com","<MISSING>","<MISSING>","page_url"
"https://www.tforcefreight.com/ltl/apps/GetServiceCenterDetails?zip=97141&country=US","TILLAMOOK, OR","2703 3RD ST","TILLAMOOK","OR","97141","US","469-TIL","(800)333-7400","<MISSING>","<MISSING>","<MISSING>","www.tforcefreight.com","<MISSING>","<MISSING>","page_url"
"https://www.tforcefreight.com/ltl/apps/GetServiceCenterDetails?zip=180179402&country=US","BETHLEHEM, PA","342 STOKE PARK RD","BETHLEHEM","PA","180179402","US","283-BAE","(800)333-7400","<MISSING>","<MISSING>","<MISSING>","www.tforcefreight.com","<MISSING>","<MISSING>","page_url"
"https://www.tforcefreight.com/ltl/apps/GetServiceCenterDetails?zip=158012532&country=US","DU BOIS, PA","PO BOX 514","MEADOW LANDS","PA","158012532","US","151-DUB","(800)333-7400","<MISSING>","<MISSING>","<MISSING>","www.tforcefreight.com","<MISSING>","<MISSING>","page_url"
"https://www.tforcefreight.com/ltl/apps/GetServiceCenterDetails?zip=165054828&country=US","ERIE, PA","1702 PITTSBURGH AVE","ERIE","PA","165054828","US","130-ERE","(800)333-7400","<MISSING>","<MISSING>","<MISSING>","www.tforcefreight.com","<MISSING>","<MISSING>","page_url"
"https://www.tforcefreight.com/ltl/apps/GetServiceCenterDetails?zip=170502863&country=US","HARRISBURG, PA","6060 CARLISLE PIKE","MECHANICSBURG","PA","170502863","US","129-HRS","(800)333-7400","<MISSING>","<MISSING>","<MISSING>","www.tforcefreight.com","<MISSING>","<MISSING>","page_url"
"https://www.tforcefreight.com/ltl/apps/GetServiceCenterDetails?zip=190207303&country=US","PHILADELPHIA, PA","525 IMPERIAL CT","BENSALEM","PA","190207303","US","076-PHL","(800)333-7400","<MISSING>","<MISSING>","<MISSING>","www.tforcefreight.com","<MISSING>","<MISSING>","page_url"
"https://www.tforcefreight.com/ltl/apps/GetServiceCenterDetails?zip=15347&country=US","PITTSBURGH, PA","PO BOX 514","MEADOW LANDS","PA","15347","US","060-PTG","(800)333-7400","<MISSING>","<MISSING>","<MISSING>","www.tforcefreight.com","<MISSING>","<MISSING>","page_url"
"https://www.tforcefreight.com/ltl/apps/GetServiceCenterDetails?zip=194643734&country=US","POTTSTOWN, PA","624 OLD READING PIKE","STOWE","PA","194643734","US","045-PTT","(800)333-7400","<MISSING>","<MISSING>","<MISSING>","www.tforcefreight.com","<MISSING>","<MISSING>","page_url"
"https://www.tforcefreight.com/ltl/apps/GetServiceCenterDetails?zip=18518&country=US","SCRANTON, PA","1001 MOOSIC RD","OLD FORGE","PA","18518","US","086-SCR","(800)333-7400","<MISSING>","<MISSING>","<MISSING>","www.tforcefreight.com","<MISSING>","<MISSING>","page_url"
"https://www.tforcefreight.com/ltl/apps/GetServiceCenterDetails?zip=174021922&country=US","YORK, PA","1601 TORONITA ST","YORK","PA","174021922","US","172-YOR","(800)333-7400","<MISSING>","<MISSING>","<MISSING>","www.tforcefreight.com","<MISSING>","<MISSING>","page_url"
"https://www.tforcefreight.com/ltl/apps/GetServiceCenterDetails?zip=00969&country=US","SAN JUAN, PR","CALLE A LOTE 2","GUAYNABO","PR","00969","US","290-SJN","(800)333-7400","<MISSING>","<MISSING>","<MISSING>","www.tforcefreight.com","<MISSING>","<MISSING>","page_url"
"https://www.tforcefreight.com/ltl/apps/GetServiceCenterDetails?zip=028654212&country=US","PROVIDENCE, RI","617 GEORGE WASHINGTON HWY","LINCOLN","RI","028654212","US","109-PVD","(800)333-7400","<MISSING>","<MISSING>","<MISSING>","www.tforcefreight.com","<MISSING>","<MISSING>","page_url"
"https://www.tforcefreight.com/ltl/apps/GetServiceCenterDetails?zip=294057405&country=US","CHARLESTON, SC","4150 AZALEA DR","CHARLESTON","SC","294057405","US","015-CHS","(800)333-7400","<MISSING>","<MISSING>","<MISSING>","www.tforcefreight.com","<MISSING>","<MISSING>","page_url"
"https://www.tforcefreight.com/ltl/apps/GetServiceCenterDetails?zip=291723805&country=US","COLUMBIA, SC","3083 CHARLESTON HWY","WEST COLUMBIA","SC","291723805","US","009-COL","(800)333-7400","<MISSING>","<MISSING>","<MISSING>","www.tforcefreight.com","<MISSING>","<MISSING>","page_url"
"https://www.tforcefreight.com/ltl/apps/GetServiceCenterDetails?zip=295011991&country=US","FLORENCE, SC","200 DUNBARTON DR","FLORENCE","SC","295011991","US","021-FLO","(800)333-7400","<MISSING>","<MISSING>","<MISSING>","www.tforcefreight.com","<MISSING>","<MISSING>","page_url"
"https://www.tforcefreight.com/ltl/apps/GetServiceCenterDetails?zip=293412942&country=US","GAFFNEY, SC","129 PLEASANT SCHOOL RD","GAFFNEY","SC","293412942","US","042-GAF","(800)333-7400","<MISSING>","<MISSING>","<MISSING>","www.tforcefreight.com","<MISSING>","<MISSING>","page_url"
"https://www.tforcefreight.com/ltl/apps/GetServiceCenterDetails?zip=296155718&country=US","GREENVILLE, SC","5025 PELHAM RD","GREENVILLE","SC","296155718","US","008-GVL","(800)333-7400","<MISSING>","<MISSING>","<MISSING>","www.tforcefreight.com","<MISSING>","<MISSING>","page_url"
"https://www.tforcefreight.com/ltl/apps/GetServiceCenterDetails?zip=571040819&country=US","SIOUX FALLS, SD","2807 N 1ST AVE","SIOUX FALLS","SD","571040819","US","492-SFL","(800)333-7400","<MISSING>","<MISSING>","<MISSING>","www.tforcefreight.com","<MISSING>","<MISSING>","page_url"
"https://www.tforcefreight.com/ltl/apps/GetServiceCenterDetails?zip=376209125&country=US","BRISTOL, TN","105 SENEKER RD","BRISTOL","TN","376209125","US","028-BST","(800)333-7400","<MISSING>","<MISSING>","<MISSING>","www.tforcefreight.com","<MISSING>","<MISSING>","page_url"
"https://www.tforcefreight.com/ltl/apps/GetServiceCenterDetails?zip=307367320&country=US","CHATTANOOGA, GA","333 GATEWAY DR","RINGGOLD","TN","307367320","US","026-CGA","(800)333-7400","<MISSING>","<MISSING>","<MISSING>","www.tforcefreight.com","<MISSING>","<MISSING>","page_url"
"https://www.tforcefreight.com/ltl/apps/GetServiceCenterDetails?zip=38305&country=US","JACKSON, TN","1803 E BROOKS RD","MEMPHIS","TN","38305","US","096-JKT","(800)333-7400","<MISSING>","<MISSING>","<MISSING>","www.tforcefreight.com","<MISSING>","<MISSING>","page_url"
"https://www.tforcefreight.com/ltl/apps/GetServiceCenterDetails?zip=379146323&country=US","KNOXVILLE, TN","3718 E GOV JOHN SEVIER HWY","KNOXVILLE","TN","379146323","US","023-KNX","(800)333-7400","<MISSING>","<MISSING>","<MISSING>","www.tforcefreight.com","<MISSING>","<MISSING>","page_url"
"https://www.tforcefreight.com/ltl/apps/GetServiceCenterDetails?zip=381163605&country=US","MEMPHIS, TN","1803 E BROOKS RD","MEMPHIS","TN","381163605","US","047-MEM","(800)333-7400","<MISSING>","<MISSING>","<MISSING>","www.tforcefreight.com","<MISSING>","<MISSING>","page_url"
"https://www.tforcefreight.com/ltl/apps/GetServiceCenterDetails?zip=37086&country=US","NASHVILLE, TN","45 TELEDYNE PL","LA VERGNE","TN","37086","US","022-NSH","(800)333-7400","<MISSING>","<MISSING>","<MISSING>","www.tforcefreight.com","<MISSING>","<MISSING>","page_url"
"https://www.tforcefreight.com/ltl/apps/GetServiceCenterDetails?zip=787533827&country=US","AUSTIN, TX","10001 MIDDLE FISKVILLE RD","AUSTIN","TX","787533827","US","144-AST","(800)333-7400","<MISSING>","<MISSING>","<MISSING>","www.tforcefreight.com","<MISSING>","<MISSING>","page_url"
"https://www.tforcefreight.com/ltl/apps/GetServiceCenterDetails?zip=777057629&country=US","BEAUMONT, TX","2525 CAVALCADE","HOUSTON","TX","777057629","US","184-BEA","(800)333-7400","<MISSING>","<MISSING>","<MISSING>","www.tforcefreight.com","<MISSING>","<MISSING>","page_url"
"https://www.tforcefreight.com/ltl/apps/GetServiceCenterDetails?zip=750618922&country=US","DALLAS, TX","2600 E PIONEER DR","IRVING","TX","750618922","US","082-DAL","(800)333-7400","<MISSING>","<MISSING>","<MISSING>","www.tforcefreight.com","<MISSING>","<MISSING>","page_url"
"https://www.tforcefreight.com/ltl/apps/GetServiceCenterDetails?zip=799366402&country=US","EL PASO, TX","1370 GOODYEAR DR","EL PASO","TX","799366402","US","070-ELP","(800)333-7400","<MISSING>","<MISSING>","<MISSING>","www.tforcefreight.com","<MISSING>","<MISSING>","page_url"
"https://www.tforcefreight.com/ltl/apps/GetServiceCenterDetails?zip=782192502&country=US","EAGLE PASS, TX","4111 NE LOOP 410","SAN ANTONIO","TX","782192502","US","305-EPS","(800)333-7400","<MISSING>","<MISSING>","<MISSING>","www.tforcefreight.com","<MISSING>","<MISSING>","page_url"
"https://www.tforcefreight.com/ltl/apps/GetServiceCenterDetails?zip=761195301&country=US","FORT WORTH, TX","5001 DAVID STRICKLAND RD","FORT WORTH","TX","761195301","US","159-FWR","(800)333-7400","<MISSING>","<MISSING>","<MISSING>","www.tforcefreight.com","<MISSING>","<MISSING>","page_url"
"https://www.tforcefreight.com/ltl/apps/GetServiceCenterDetails?zip=750427770&country=US","GARLAND, TX","2600 E PIONEER DR","IRVING","TX","750427770","US","180-GAR","(800)333-7400","<MISSING>","<MISSING>","<MISSING>","www.tforcefreight.com","<MISSING>","<MISSING>","page_url"
"https://www.tforcefreight.com/ltl/apps/GetServiceCenterDetails?zip=785867765&country=US","HARLINGEN, TX","602 W FM 800","SAN BENITO","TX","785867765","US","165-HAR","(800)333-7400","<MISSING>","<MISSING>","<MISSING>","www.tforcefreight.com","<MISSING>","<MISSING>","page_url"
"https://www.tforcefreight.com/ltl/apps/GetServiceCenterDetails?zip=770263207&country=US","HOUSTON, TX","2525 CAVALCADE","HOUSTON","TX","770263207","US","068-HST","(800)333-7400","<MISSING>","<MISSING>","<MISSING>","www.tforcefreight.com","<MISSING>","<MISSING>","page_url"
"https://www.tforcefreight.com/ltl/apps/GetServiceCenterDetails?zip=78041&country=US","LAREDO, TX","6120 RIVERSIDE DR","LAREDO","TX","78041","US","164-LAR","(800)333-7400","<MISSING>","<MISSING>","<MISSING>","www.tforcefreight.com","<MISSING>","<MISSING>","page_url"
"https://www.tforcefreight.com/ltl/apps/GetServiceCenterDetails?zip=78045&country=US","LAREDO SCS, TX","6120 RIVERSIDE DR","LAREDO","TX","78045","US","147-LDO","(800)333-7400","<MISSING>","<MISSING>","<MISSING>","www.tforcefreight.com","<MISSING>","<MISSING>","page_url"
"https://www.tforcefreight.com/ltl/apps/GetServiceCenterDetails?zip=794034913&country=US","LUBBOCK, TX","128 E 13TH ST","LUBBOCK","TX","794034913","US","183-LUB","(800)333-7400","<MISSING>","<MISSING>","<MISSING>","www.tforcefreight.com","<MISSING>","<MISSING>","page_url"
"https://www.tforcefreight.com/ltl/apps/GetServiceCenterDetails?zip=79404&country=US","NORTH TEXAS, TX","128 E 13TH ST","LUBBOCK","TX","79404","US","338-NTX","(800)333-7400","<MISSING>","<MISSING>","<MISSING>","www.tforcefreight.com","<MISSING>","<MISSING>","page_url"
"https://www.tforcefreight.com/ltl/apps/GetServiceCenterDetails?zip=79936&country=US","RAC EL PASO, TX","1370 GOODYEAR DR","EL PASO","TX","79936","US","415-RLP","(800)333-7400","<MISSING>","<MISSING>","<MISSING>","www.tforcefreight.com","<MISSING>","<MISSING>","page_url"
"https://www.tforcefreight.com/ltl/apps/GetServiceCenterDetails?zip=782185429&country=US","SAN ANTONIO, TX","4111 NE LOOP 410","SAN ANTONIO","TX","782185429","US","145-SNT","(800)333-7400","<MISSING>","<MISSING>","<MISSING>","www.tforcefreight.com","<MISSING>","<MISSING>","page_url"
"https://www.tforcefreight.com/ltl/apps/GetServiceCenterDetails?zip=782252018&country=US","SOUTH TEXAS, TX","4111 NE LOOP 410","SAN ANTONIO","TX","782252018","US","186-STX","(800)333-7400","<MISSING>","<MISSING>","<MISSING>","www.tforcefreight.com","<MISSING>","<MISSING>","page_url"
"https://www.tforcefreight.com/ltl/apps/GetServiceCenterDetails?zip=75701&country=US","TYLER, TX","1553 S BENNETT AVE","TYLER","TX","75701","US","190-TYL","(800)333-7400","<MISSING>","<MISSING>","<MISSING>","www.tforcefreight.com","<MISSING>","<MISSING>","page_url"
"https://www.tforcefreight.com/ltl/apps/GetServiceCenterDetails?zip=763017024&country=US","VERNON, TX","5001 DAVID STRICKLAND RD","FORT WORTH","TX","763017024","US","402-VER","(800)333-7400","<MISSING>","<MISSING>","<MISSING>","www.tforcefreight.com","<MISSING>","<MISSING>","page_url"
"https://www.tforcefreight.com/ltl/apps/GetServiceCenterDetails?zip=767067389&country=US","WACO, TX","6000 S IH 35","ROBINSON","TX","767067389","US","252-WAC","(800)333-7400","<MISSING>","<MISSING>","<MISSING>","www.tforcefreight.com","<MISSING>","<MISSING>","page_url"
"https://www.tforcefreight.com/ltl/apps/GetServiceCenterDetails?zip=847209209&country=US","CEDAR CITY, UT","PO BOX 1635","CEDAR CITY","UT","847209209","US","425-CED","(800)333-7400","<MISSING>","<MISSING>","<MISSING>","www.tforcefreight.com","<MISSING>","<MISSING>","page_url"
"https://www.tforcefreight.com/ltl/apps/GetServiceCenterDetails?zip=841044206&country=US","NEPHI, UT","2900 W CALIFORNIA AVE","SALT LAKE CITY","UT","841044206","US","503-NEP","(800)333-7400","<MISSING>","<MISSING>","<MISSING>","www.tforcefreight.com","<MISSING>","<MISSING>","page_url"
"https://www.tforcefreight.com/ltl/apps/GetServiceCenterDetails?zip=84104&country=US","SALT LAKE CITY, UT","2900 W CALIFORNIA AVE","SALT LAKE CITY","UT","84104","US","114-SLC","(800)333-7400","<MISSING>","<MISSING>","<MISSING>","www.tforcefreight.com","<MISSING>","<MISSING>","page_url"
"https://www.tforcefreight.com/ltl/apps/GetServiceCenterDetails?zip=84078&country=US","VERNAL, UT","1300 S 1500 E","VERNAL","UT","84078","US","504-VNA","(800)333-7400","<MISSING>","<MISSING>","<MISSING>","www.tforcefreight.com","<MISSING>","<MISSING>","page_url"
"https://www.tforcefreight.com/ltl/apps/GetServiceCenterDetails?zip=89835&country=US","WENDOVER, NV","4470-A PIONEER WAY","ELKO","UT","89835","US","446-WEN","(800)333-7400","<MISSING>","<MISSING>","<MISSING>","www.tforcefreight.com","<MISSING>","<MISSING>","page_url"
"https://www.tforcefreight.com/ltl/apps/GetServiceCenterDetails?zip=054037705&country=US","BURLINGTON, VT","2 HOLMES RD","SOUTH BURLINGTON","VT","054037705","US","169-BUR","(800)333-7400","<MISSING>","<MISSING>","<MISSING>","www.tforcefreight.com","<MISSING>","<MISSING>","page_url"
"https://www.tforcefreight.com/ltl/apps/GetServiceCenterDetails?zip=03053&country=US","N NEW ENGLAND, NH","19 COMMERCE AVE","LONDONDERRY","VT","03053","US","349-NNE","(800)333-7400","<MISSING>","<MISSING>","<MISSING>","www.tforcefreight.com","<MISSING>","<MISSING>","page_url"
"https://www.tforcefreight.com/ltl/apps/GetServiceCenterDetails?zip=201361151&country=US","MANASSAS, VA","13185 ARTO ST","BRISTOW","VA","201361151","US","173-MNS","(800)333-7400","<MISSING>","<MISSING>","<MISSING>","www.tforcefreight.com","<MISSING>","<MISSING>","page_url"
"https://www.tforcefreight.com/ltl/apps/GetServiceCenterDetails?zip=23320&country=US","NORFOLK, VA","2053 S MILITARY HWY","CHESAPEAKE","VA","23320","US","013-NFK","(800)333-7400","<MISSING>","<MISSING>","<MISSING>","www.tforcefreight.com","<MISSING>","<MISSING>","page_url"
"https://www.tforcefreight.com/ltl/apps/GetServiceCenterDetails?zip=232256109&country=US","RICHMOND, VA","5401 MIDLOTHIAN TPKE","RICHMOND","VA","232256109","US","001-RIC","(800)333-7400","<MISSING>","<MISSING>","<MISSING>","www.tforcefreight.com","<MISSING>","<MISSING>","page_url"
"https://www.tforcefreight.com/ltl/apps/GetServiceCenterDetails?zip=240193046&country=US","ROANOKE, VA","4668 KENWORTH RD","ROANOKE","VA","240193046","US","027-RKE","(800)333-7400","<MISSING>","<MISSING>","<MISSING>","www.tforcefreight.com","<MISSING>","<MISSING>","page_url"
"https://www.tforcefreight.com/ltl/apps/GetServiceCenterDetails?zip=229801907&country=US","WAYNESBORO, VA","1451 S DELPHINE AVE","WAYNESBORO","VA","229801907","US","074-WYB","(800)333-7400","<MISSING>","<MISSING>","<MISSING>","www.tforcefreight.com","<MISSING>","<MISSING>","page_url"
"https://www.tforcefreight.com/ltl/apps/GetServiceCenterDetails?zip=98520&country=US","ABERDEEN, WA","8200 S 216TH ST","KENT","WA","98520","US","489-ABD","(800)333-7400","<MISSING>","<MISSING>","<MISSING>","www.tforcefreight.com","<MISSING>","<MISSING>","page_url"
"https://www.tforcefreight.com/ltl/apps/GetServiceCenterDetails?zip=980321934&country=US","KENT, WA","8200 S 216TH ST","KENT","WA","980321934","US","456-SAT","(800)333-7400","<MISSING>","<MISSING>","<MISSING>","www.tforcefreight.com","<MISSING>","<MISSING>","page_url"
"https://www.tforcefreight.com/ltl/apps/GetServiceCenterDetails?zip=981681953&country=US","SEATTLE, WA","11231 E MARGINAL WAY S","TUKWILA","WA","981681953","US","138-SEA","(800)333-7400","<MISSING>","<MISSING>","<MISSING>","www.tforcefreight.com","<MISSING>","<MISSING>","page_url"
"https://www.tforcefreight.com/ltl/apps/GetServiceCenterDetails?zip=99224&country=US","SPOKANE, WA","10424 W AERO ROAD","SPOKANE","WA","99224","US","457-SPO","(800)333-7400","<MISSING>","<MISSING>","<MISSING>","www.tforcefreight.com","<MISSING>","<MISSING>","page_url"
"https://www.tforcefreight.com/ltl/apps/GetServiceCenterDetails?zip=989013617&country=US","YAKIMA, WA","3641 NW ST HELENS RD","PORTLAND","WA","989013617","US","460-YAK","(800)333-7400","<MISSING>","<MISSING>","<MISSING>","www.tforcefreight.com","<MISSING>","<MISSING>","page_url"
"https://www.tforcefreight.com/ltl/apps/GetServiceCenterDetails?zip=25143&country=US","CHARLESTON, WV","PO BOX 669","NITRO","WV","25143","US","006-CHW","(800)333-7400","<MISSING>","<MISSING>","<MISSING>","www.tforcefreight.com","<MISSING>","<MISSING>","page_url"
"https://www.tforcefreight.com/ltl/apps/GetServiceCenterDetails?zip=261016609&country=US","PARKERSBURG, WV","4400 CAMDEN AVE","PARKERSBURG","WV","261016609","US","040-PKB","(800)333-7400","<MISSING>","<MISSING>","<MISSING>","www.tforcefreight.com","<MISSING>","<MISSING>","page_url"
"https://www.tforcefreight.com/ltl/apps/GetServiceCenterDetails?zip=541301165&country=US","APPLETON, WI","P O BOX 105","KAUKAUNA","WI","541301165","US","143-APP","(800)333-7400","<MISSING>","<MISSING>","<MISSING>","www.tforcefreight.com","<MISSING>","<MISSING>","page_url"
"https://www.tforcefreight.com/ltl/apps/GetServiceCenterDetails?zip=547201144&country=US","EAU CLAIRE, WI","911 PRINCETON AVE","ALTOONA","WI","547201144","US","255-EAU","(800)333-7400","<MISSING>","<MISSING>","<MISSING>","www.tforcefreight.com","<MISSING>","<MISSING>","page_url"
"https://www.tforcefreight.com/ltl/apps/GetServiceCenterDetails?zip=546033151&country=US","LA CROSSE, WI","111 CAUSEWAY BLVD","LA CROSSE","WI","546033151","US","256-LAC","(800)333-7400","<MISSING>","<MISSING>","<MISSING>","www.tforcefreight.com","<MISSING>","<MISSING>","page_url"
"https://www.tforcefreight.com/ltl/apps/GetServiceCenterDetails?zip=537186771&country=US","MADISON, WI","2506 DANIELS ST","MADISON","WI","537186771","US","171-MAD","(800)333-7400","<MISSING>","<MISSING>","<MISSING>","www.tforcefreight.com","<MISSING>","<MISSING>","page_url"
"https://www.tforcefreight.com/ltl/apps/GetServiceCenterDetails?zip=53221&country=US","MILWAUKEE, WI","4924 S 13TH ST","MILWAUKEE","WI","53221","US","101-MWK","(800)333-7400","<MISSING>","<MISSING>","<MISSING>","www.tforcefreight.com","<MISSING>","<MISSING>","page_url"
"https://www.tforcefreight.com/ltl/apps/GetServiceCenterDetails?zip=54501&country=US","RHINELANDER, WI","625 WASHINGTON ST","RHINELANDER","WI","54501","US","353-RLD","(800)333-7400","<MISSING>","<MISSING>","<MISSING>","www.tforcefreight.com","<MISSING>","<MISSING>","page_url"
"https://www.tforcefreight.com/ltl/apps/GetServiceCenterDetails?zip=548682404&country=US","RICE LAKE, WI","220 W COLEMAN ST","RICE LAKE","WI","548682404","US","257-RLK","(800)333-7400","<MISSING>","<MISSING>","<MISSING>","www.tforcefreight.com","<MISSING>","<MISSING>","page_url"
"https://www.tforcefreight.com/ltl/apps/GetServiceCenterDetails?zip=826019653&country=US","CASPER, WY","PO BOX 217","CASPER","WY","826019653","US","408-CSP","(800)333-7400","<MISSING>","<MISSING>","<MISSING>","www.tforcefreight.com","<MISSING>","<MISSING>","page_url"
"https://www.tforcefreight.com/ltl/apps/GetServiceCenterDetails?zip=T2C2X8&country=CA","CALGARY, AB","4700 102 AVE SE","CALGARY","AB","T2C2X8","CA","307-CAL","(800)333-7400","<MISSING>","<MISSING>","<MISSING>","www.tforcefreight.com","<MISSING>","<MISSING>","page_url"
"https://www.tforcefreight.com/ltl/apps/GetServiceCenterDetails?zip=T5S2T9&country=CA","EDMONTON, AB","17508 116 AVE NW","EDMONTON","AB","T5S2T9","CA","467-EDM","(800)333-7400","<MISSING>","<MISSING>","<MISSING>","www.tforcefreight.com","<MISSING>","<MISSING>","page_url"
"https://www.tforcefreight.com/ltl/apps/GetServiceCenterDetails?zip=V3C6L3&country=CA","VANCOUVER, BC","1488 COAST MERIDIAN ROAD","PORT COQUITLAM","BC","V3C6L3","CA","191-VAN","(800)333-7400","<MISSING>","<MISSING>","<MISSING>","www.tforcefreight.com","<MISSING>","<MISSING>","page_url"
"https://www.tforcefreight.com/ltl/apps/GetServiceCenterDetails?zip=V8L5S9&country=CA","VICTORIA, BC","10009 AVENGER WAY","NORTH SAANICH","BC","V8L5S9","CA","308-VIC","(800)333-7400","<MISSING>","<MISSING>","<MISSING>","www.tforcefreight.com","<MISSING>","<MISSING>","page_url"
"https://www.tforcefreight.com/ltl/apps/GetServiceCenterDetails?zip=R3C2E6&country=CA","WINNIPEG, MB","490 LUCAS AVE","WINNIPEG","MB","R3C2E6","CA","310-WPG","(800)333-7400","<MISSING>","<MISSING>","<MISSING>","www.tforcefreight.com","<MISSING>","<MISSING>","page_url"
"https://www.tforcefreight.com/ltl/apps/GetServiceCenterDetails?zip=E2L5Y4&country=CA","MONCTON, NB","80 WILKINSON AVE","DARTMOUTH","NB","E2L5Y4","CA","378-MCT","(800)333-7400","<MISSING>","<MISSING>","<MISSING>","www.tforcefreight.com","<MISSING>","<MISSING>","page_url"
"https://www.tforcefreight.com/ltl/apps/GetServiceCenterDetails?zip=X1A3T4&country=CA","YELLOWKNIFE, NT","358 OLD AIRPORT RD","YELLOWKNIFE","NT","X1A3T4","CA","322-YNF","(800)333-7400","<MISSING>","<MISSING>","<MISSING>","www.tforcefreight.com","<MISSING>","<MISSING>","page_url"
"https://www.tforcefreight.com/ltl/apps/GetServiceCenterDetails?zip=B3B0G3&country=CA","HALIFAX, NS","80 GUILDFORD AVE","DARTMOUTH","NS","B3B0G3","CA","520-DAR","(800)333-7400","<MISSING>","<MISSING>","<MISSING>","www.tforcefreight.com","<MISSING>","<MISSING>","page_url"
"https://www.tforcefreight.com/ltl/apps/GetServiceCenterDetails?zip=A1L1C3&country=CA","ST JOHNS, NL","80 WILKINSON AVE","DARTMOUTH","NL","A1L1C3","CA","380-STJ","(800)333-7400","<MISSING>","<MISSING>","<MISSING>","www.tforcefreight.com","<MISSING>","<MISSING>","page_url"
"https://www.tforcefreight.com/ltl/apps/GetServiceCenterDetails?zip=N6N1K9&country=CA","LONDON, ON","2724 ROXBURGH RD","LONDON","ON","N6N1K9","CA","189-LON","(800)333-7400","<MISSING>","<MISSING>","<MISSING>","www.tforcefreight.com","<MISSING>","<MISSING>","page_url"
"https://www.tforcefreight.com/ltl/apps/GetServiceCenterDetails?zip=L4W1E6&country=CA","OTTAWA, ON","5425 DIXIE ROAD BLDG B","MISSISSAUGA","ON","L4W1E6","CA","377-OTT","(800)333-7400","<MISSING>","<MISSING>","<MISSING>","www.tforcefreight.com","<MISSING>","<MISSING>","page_url"
"https://www.tforcefreight.com/ltl/apps/GetServiceCenterDetails?zip=H4S1B7&country=CA","MONTREAL, PQ","555 AUTOROUTE 13","SAINT-LAURENT","PQ","H4S1B7","CA","136-MTL","(800)333-7400","<MISSING>","<MISSING>","<MISSING>","www.tforcefreight.com","<MISSING>","<MISSING>","page_url"
"https://www.tforcefreight.com/ltl/apps/GetServiceCenterDetails?zip=S4N5X3&country=CA","REGINA, SK","608 HENDERSON DR","REGINA","SK","S4N5X3","CA","311-REG","(800)333-7400","<MISSING>","<MISSING>","<MISSING>","www.tforcefreight.com","<MISSING>","<MISSING>","page_url"
"https://www.tforcefreight.com/ltl/apps/GetServiceCenterDetails?zip=Y1A2Z4&country=CA","WHITEHORSE, YT","2 - 114 CALIUTE RD","WHITEHORSE","YT","Y1A2Z4","CA","321-WHS","(800)333-7400","<MISSING>","<MISSING>","<MISSING>","www.tforcefreight.com","<MISSING>","<MISSING>","page_url"
"https://www.tforcefreight.com/ltl/apps/GetServiceCenterDetails?zip=20290&country=MX","AGUASCALIENTES, AG","COL. EL ROSARIO","GUADALAJARA","AG","20290","MX","535-AGS","(800)333-7400","<MISSING>","<MISSING>","<MISSING>","www.tforcefreight.com","<MISSING>","<MISSING>","page_url"
"https://www.tforcefreight.com/ltl/apps/GetServiceCenterDetails?zip=22760&country=MX","ENSENADA, BJ","CALLE 3 NORTE #564-C CD","TIJUANA","BJ","22760","MX","325-ENS","(800)333-7400","<MISSING>","<MISSING>","<MISSING>","www.tforcefreight.com","<MISSING>","<MISSING>","page_url"
"https://www.tforcefreight.com/ltl/apps/GetServiceCenterDetails?zip=21389&country=MX","MEXICALI, BJ","CALZ HECTOR TERAN TERAN #2283","MEXICALI","BJ","21389","MX","507-MLI","(800)333-7400","<MISSING>","<MISSING>","<MISSING>","www.tforcefreight.com","<MISSING>","<MISSING>","page_url"
"https://www.tforcefreight.com/ltl/apps/GetServiceCenterDetails?zip=22455&country=MX","TIJUANA, BC","CALLE 3 NORTE #564-C CD","TIJUANA","BJ","22455","MX","569-TIJ","(800)333-7400","<MISSING>","<MISSING>","<MISSING>","www.tforcefreight.com","<MISSING>","<MISSING>","page_url"
"https://www.tforcefreight.com/ltl/apps/GetServiceCenterDetails?zip=23040&country=MX","LA PAZ, BS","COLONIA RUIZ CORTINES","LA PAZ","BS","23040","MX","320-LPZ","(800)333-7400","<MISSING>","<MISSING>","<MISSING>","www.tforcefreight.com","<MISSING>","<MISSING>","page_url"
"https://www.tforcefreight.com/ltl/apps/GetServiceCenterDetails?zip=24157&country=MX","CD. DEL CARMEN, CP","FRACCIONAMIENTO LAS LAGUNAS","VILLAHERMOSA","CP","24157","MX","340-CAR","(800)333-7400","<MISSING>","<MISSING>","<MISSING>","www.tforcefreight.com","<MISSING>","<MISSING>","page_url"
"https://www.tforcefreight.com/ltl/apps/GetServiceCenterDetails?zip=24560&country=MX","CAMPECHE, CP","COL PENON DE LOS BANOS","CIUDAD DE MEXICO","CP","24560","MX","339-CMP","(800)333-7400","<MISSING>","<MISSING>","<MISSING>","www.tforcefreight.com","<MISSING>","<MISSING>","page_url"
"https://www.tforcefreight.com/ltl/apps/GetServiceCenterDetails?zip=25732&country=MX","MONCLOVA, CH","BLVD HAROLD PAPE # 2019-A","MONCLOVA","CH","25732","MX","342-MVA","(800)333-7400","<MISSING>","<MISSING>","<MISSING>","www.tforcefreight.com","<MISSING>","<MISSING>","page_url"
"https://www.tforcefreight.com/ltl/apps/GetServiceCenterDetails?zip=26089&country=MX","PIEDRAS NEGRAS, CH","#900 COL. LOMAS DEL NORTE","PIEDRAS NEGRAS","CH","26089","MX","345-PNG","(800)333-7400","<MISSING>","<MISSING>","<MISSING>","www.tforcefreight.com","<MISSING>","<MISSING>","page_url"
"https://www.tforcefreight.com/ltl/apps/GetServiceCenterDetails?zip=30797&country=MX","TAPACHULA, CH","COL. EL MILAGRO","MONTERREY","CH","30797","MX","317-TAP","(800)333-7400","<MISSING>","<MISSING>","<MISSING>","www.tforcefreight.com","<MISSING>","<MISSING>","page_url"
"https://www.tforcefreight.com/ltl/apps/GetServiceCenterDetails?zip=29045&country=MX","TUXTLA GUTIEREZ, CH","AV 602 Y CAMINO ASA S/N","CIUDAD DE MEXICO","CH","29045","MX","335-TGZ","(800)333-7400","<MISSING>","<MISSING>","<MISSING>","www.tforcefreight.com","<MISSING>","<MISSING>","page_url"
"https://www.tforcefreight.com/ltl/apps/GetServiceCenterDetails?zip=31136&country=MX","CHIHUAHUA, CI","COL. EL MILAGRO","MONTERREY","CI","31136","MX","539-CHI","(800)333-7400","<MISSING>","<MISSING>","<MISSING>","www.tforcefreight.com","<MISSING>","<MISSING>","page_url"
"https://www.tforcefreight.com/ltl/apps/GetServiceCenterDetails?zip=31532&country=MX","CUAUHTEMOC, CI","COL. EL MILAGRO","MONTERREY","CI","31532","MX","330-CUA","(800)333-7400","<MISSING>","<MISSING>","<MISSING>","www.tforcefreight.com","<MISSING>","<MISSING>","page_url"
"https://www.tforcefreight.com/ltl/apps/GetServiceCenterDetails?zip=33000&country=MX","DELICIAS, CI","COL. EL MILAGRO","MONTERREY","CI","33000","MX","332-DEL","(800)333-7400","<MISSING>","<MISSING>","<MISSING>","www.tforcefreight.com","<MISSING>","<MISSING>","page_url"
"https://www.tforcefreight.com/ltl/apps/GetServiceCenterDetails?zip=32380&country=MX","CIUDAD JUAREZ, CI","COL. EL MILAGRO","MONTERREY","CI","32380","MX","549-JUA","(800)333-7400","<MISSING>","<MISSING>","<MISSING>","www.tforcefreight.com","<MISSING>","<MISSING>","page_url"
"https://www.tforcefreight.com/ltl/apps/GetServiceCenterDetails?zip=31750&country=MX","NUEVO CASAS GDS, CI","COL. EL ROSARIO","GUADALAJARA","CI","31750","MX","331-NCG","(800)333-7400","<MISSING>","<MISSING>","<MISSING>","www.tforcefreight.com","<MISSING>","<MISSING>","page_url"
"https://www.tforcefreight.com/ltl/apps/GetServiceCenterDetails?zip=33800&country=MX","HID. DEL PARRAL, CI","COL. EL ROSARIO","GUADALAJARA","CI","33800","MX","333-PAR","(800)333-7400","<MISSING>","<MISSING>","<MISSING>","www.tforcefreight.com","<MISSING>","<MISSING>","page_url"
"https://www.tforcefreight.com/ltl/apps/GetServiceCenterDetails?zip=25260&country=MX","SALTILLO, CU","COL. EL MILAGRO","MONTERREY","CU","25260","MX","568-STI","(800)333-7400","<MISSING>","<MISSING>","<MISSING>","www.tforcefreight.com","<MISSING>","<MISSING>","page_url"
"https://www.tforcefreight.com/ltl/apps/GetServiceCenterDetails?zip=28000&country=MX","COLIMA, CL","COL. EL ROSARIO","GUADALAJARA","CL","28000","MX","572-CMA","(800)333-7400","<MISSING>","<MISSING>","<MISSING>","www.tforcefreight.com","<MISSING>","<MISSING>","page_url"
"https://www.tforcefreight.com/ltl/apps/GetServiceCenterDetails?zip=28239&country=MX","MANZANILLO, CL","COL. EL ROSARIO","GUADALAJARA","CL","28239","MX","555-MNZ","(800)333-7400","<MISSING>","<MISSING>","<MISSING>","www.tforcefreight.com","<MISSING>","<MISSING>","page_url"
"https://www.tforcefreight.com/ltl/apps/GetServiceCenterDetails?zip=09230&country=MX","IZTAPALAPA, DF","COL PENON DE LOS BANOS","CIUDAD DE MEXICO","DF","09230","MX","270-IZT","(800)333-7400","<MISSING>","<MISSING>","<MISSING>","www.tforcefreight.com","<MISSING>","<MISSING>","page_url"
"https://www.tforcefreight.com/ltl/apps/GetServiceCenterDetails?zip=54145&country=MX","MEXICO CITY, EM","TLALOCAN 26, AXOTLAN","CUAUTITLAN IZCALLI","DF","54145","MX","388-MEX","(800)333-7400","<MISSING>","<MISSING>","<MISSING>","www.tforcefreight.com","<MISSING>","<MISSING>","page_url"
"https://www.tforcefreight.com/ltl/apps/GetServiceCenterDetails?zip=34208&country=MX","DURANGO, DG","COL. EL ROSARIO","GUADALAJARA","DG","34208","MX","543-DGO","(800)333-7400","<MISSING>","<MISSING>","<MISSING>","www.tforcefreight.com","<MISSING>","<MISSING>","page_url"
"https://www.tforcefreight.com/ltl/apps/GetServiceCenterDetails?zip=35078&country=MX","GOMEZ PALACIO, DG","COL. EL ROSARIO","GUADALAJARA","DG","35078","MX","545-GPA","(800)333-7400","<MISSING>","<MISSING>","<MISSING>","www.tforcefreight.com","<MISSING>","<MISSING>","page_url"
"https://www.tforcefreight.com/ltl/apps/GetServiceCenterDetails?zip=54715&country=MX","MEXICO CITY 3, EM","COL PENON DE LOS BANOS","CIUDAD DE MEXICO","EM","54715","MX","233-MXO","(800)333-7400","<MISSING>","<MISSING>","<MISSING>","www.tforcefreight.com","<MISSING>","<MISSING>","page_url"
"https://www.tforcefreight.com/ltl/apps/GetServiceCenterDetails?zip=55310&country=MX","ECATEPEC, EM","COL PENON DE LOS BANOS","CIUDAD DE MEXICO","EM","55310","MX","265-NET","(800)333-7400","<MISSING>","<MISSING>","<MISSING>","www.tforcefreight.com","<MISSING>","<MISSING>","page_url"
"https://www.tforcefreight.com/ltl/apps/GetServiceCenterDetails?zip=56208&country=MX","TEXCOCO, EM","COL PENON DE LOS BANOS","CIUDAD DE MEXICO","EM","56208","MX","337-TEX","(800)333-7400","<MISSING>","<MISSING>","<MISSING>","www.tforcefreight.com","<MISSING>","<MISSING>","page_url"
"https://www.tforcefreight.com/ltl/apps/GetServiceCenterDetails?zip=52000&country=MX","TOLUCA, EM","COL. EL MILAGRO","MONTERREY","EM","52000","MX","570-TLU","(800)333-7400","<MISSING>","<MISSING>","<MISSING>","www.tforcefreight.com","<MISSING>","<MISSING>","page_url"
"https://www.tforcefreight.com/ltl/apps/GetServiceCenterDetails?zip=38110&country=MX","CELAYA, GJ","OL. EL ROSARIO","GUADALAJARA","GJ","38110","MX","538-CEL","(800)333-7400","<MISSING>","<MISSING>","<MISSING>","www.tforcefreight.com","<MISSING>","<MISSING>","page_url"
"https://www.tforcefreight.com/ltl/apps/GetServiceCenterDetails?zip=36544&country=MX","IRAPUATO, GJ","COL. EL ROSARIO","GUADALAJARA","GJ","36544","MX","547-IRA","(800)333-7400","<MISSING>","<MISSING>","<MISSING>","www.tforcefreight.com","<MISSING>","<MISSING>","page_url"
"https://www.tforcefreight.com/ltl/apps/GetServiceCenterDetails?zip=39800&country=MX","ACAPULCO, GR","COL. EL ROSARIO","GUADALAJARA","GR","39800","MX","336-APU","(800)333-7400","<MISSING>","<MISSING>","<MISSING>","www.tforcefreight.com","<MISSING>","<MISSING>","page_url"
"https://www.tforcefreight.com/ltl/apps/GetServiceCenterDetails?zip=42111&country=MX","PACHUCA, HG","3.480; COL ELIDO SANTA MATILDE","PACHUCA","HG","42111","MX","499-PCH","(800)333-7400","<MISSING>","<MISSING>","<MISSING>","www.tforcefreight.com","<MISSING>","<MISSING>","page_url"
"https://www.tforcefreight.com/ltl/apps/GetServiceCenterDetails?zip=45235&country=MX","ZAPOPAN, JA","COL. EL ROSARIO","GUADALAJARA","JA","45235","MX","563-APO","(800)333-7400","<MISSING>","<MISSING>","<MISSING>","www.tforcefreight.com","<MISSING>","<MISSING>","page_url"
"https://www.tforcefreight.com/ltl/apps/GetServiceCenterDetails?zip=45609&country=MX","GUADALAJARA, JA","COL. EL ROSARIO","GUADALAJARA","JA","45609","MX","231-GDJ","(800)333-7400","<MISSING>","<MISSING>","<MISSING>","www.tforcefreight.com","<MISSING>","<MISSING>","page_url"
"https://www.tforcefreight.com/ltl/apps/GetServiceCenterDetails?zip=44430&country=MX","GUADALAJARA, JA","TLALOCAN 26, AXOTLAN","CUAUTITLAN IZCALLI","JA","44430","MX","544-GDL","(800)333-7400","<MISSING>","<MISSING>","<MISSING>","www.tforcefreight.com","<MISSING>","<MISSING>","page_url"
"https://www.tforcefreight.com/ltl/apps/GetServiceCenterDetails?zip=58218&country=MX","MORELIA, MH","COL. EL ROSARIO","GUADALAJARA","MH","58218","MX","557-MOR","(800)333-7400","<MISSING>","<MISSING>","<MISSING>","www.tforcefreight.com","<MISSING>","<MISSING>","page_url"
"https://www.tforcefreight.com/ltl/apps/GetServiceCenterDetails?zip=60190&country=MX","URUAPAN, MH","LOC 7/28 BLOQ A, QUIRINDAVARA","URUAPAN","MH","60190","MX","532-URU","(800)333-7400","<MISSING>","<MISSING>","<MISSING>","www.tforcefreight.com","<MISSING>","<MISSING>","page_url"
"https://www.tforcefreight.com/ltl/apps/GetServiceCenterDetails?zip=62550&country=MX","CUERNAVACA, MR","COL PENON DE LOS BANOS","CIUDAD DE MEXICO","MR","62550","MX","267-CVA","(800)333-7400","<MISSING>","<MISSING>","<MISSING>","www.tforcefreight.com","<MISSING>","<MISSING>","page_url"
"https://www.tforcefreight.com/ltl/apps/GetServiceCenterDetails?zip=63173&country=MX","TEPIC, NA","COL. EL ROSARIO","GUADALAJARA","NA","63173","MX","575-TEP","(800)333-7400","<MISSING>","<MISSING>","<MISSING>","www.tforcefreight.com","<MISSING>","<MISSING>","page_url"
"https://www.tforcefreight.com/ltl/apps/GetServiceCenterDetails?zip=64310&country=MX","MONTERREY, NL","COL. EL MILAGRO","MONTERREY","NL","64310","MX","556-MON","(800)333-7400","<MISSING>","<MISSING>","<MISSING>","www.tforcefreight.com","<MISSING>","<MISSING>","page_url"
"https://www.tforcefreight.com/ltl/apps/GetServiceCenterDetails?zip=66370&country=MX","MONTERREY, NL","COL. EL MILAGRO","MONTERREY","NL","66370","MX","234-MTY","(800)333-7400","<MISSING>","<MISSING>","<MISSING>","www.tforcefreight.com","<MISSING>","<MISSING>","page_url"
"https://www.tforcefreight.com/ltl/apps/GetServiceCenterDetails?zip=64800&country=MX","REVOLUCION, NL","COL. EL MILAGRO","MONTERREY","NL","64800","MX","264-REV","(800)333-7400","<MISSING>","<MISSING>","<MISSING>","www.tforcefreight.com","<MISSING>","<MISSING>","page_url"
"https://www.tforcefreight.com/ltl/apps/GetServiceCenterDetails?zip=68274&country=MX","OAXACA, OA","CARR CRISTOBAL COLON # 139","PUEBLO NUEVO","OA","68274","MX","573-OAX","(800)333-7400","<MISSING>","<MISSING>","<MISSING>","www.tforcefreight.com","<MISSING>","<MISSING>","page_url"
"https://www.tforcefreight.com/ltl/apps/GetServiceCenterDetails?zip=72310&country=MX","PUEBLA, PU","COL PENON DE LOS BANOS","CIUDAD DE MEXICO","PU","72310","MX","561-PUE","(800)333-7400","<MISSING>","<MISSING>","<MISSING>","www.tforcefreight.com","<MISSING>","<MISSING>","page_url"
"https://www.tforcefreight.com/ltl/apps/GetServiceCenterDetails?zip=76900&country=MX","QUERETARO, QA","COL PENON DE LOS BANOS","CIUDAD DE MEXICO","QA","76900","MX","562-QRO","(800)333-7400","<MISSING>","<MISSING>","<MISSING>","www.tforcefreight.com","<MISSING>","<MISSING>","page_url"
"https://www.tforcefreight.com/ltl/apps/GetServiceCenterDetails?zip=76220&country=MX","QUERETARO, QA","COL PENON DE LOS BANOS","CIUDAD DE MEXICO","QA","76220","MX","235-QUE","(800)333-7400","<MISSING>","<MISSING>","<MISSING>","www.tforcefreight.com","<MISSING>","<MISSING>","page_url"
"https://www.tforcefreight.com/ltl/apps/GetServiceCenterDetails?zip=70610&country=MX","SALINA CRUZ, OA","CARR CRISTOBAL COLON # 139","PUEBLO NUEVO","QA","70610","MX","318-SCZ","(800)333-7400","<MISSING>","<MISSING>","<MISSING>","www.tforcefreight.com","<MISSING>","<MISSING>","page_url"
"https://www.tforcefreight.com/ltl/apps/GetServiceCenterDetails?zip=77560&country=MX","CANCUN, QR","COL PENON DE LOS BANOS","CIUDAD DE MEXICO","QR","77560","MX","334-CAN","(800)333-7400","<MISSING>","<MISSING>","<MISSING>","www.tforcefreight.com","<MISSING>","<MISSING>","page_url"
"https://www.tforcefreight.com/ltl/apps/GetServiceCenterDetails?zip=76802&country=MX","SAN JUAN DELRIO, QR","COL. CENTRO PARQ IND","SAN JUAN DEL RIO","QR","76802","MX","268-SJR","(800)333-7400","<MISSING>","<MISSING>","<MISSING>","www.tforcefreight.com","<MISSING>","<MISSING>","page_url"
"https://www.tforcefreight.com/ltl/apps/GetServiceCenterDetails?zip=78395&country=MX","SAN LUIS POTOSI, SL","COL. EL ROSARIO","GUADALAJARA","SL","78395","MX","232-SAP","(800)333-7400","<MISSING>","<MISSING>","<MISSING>","www.tforcefreight.com","<MISSING>","<MISSING>","page_url"
"https://www.tforcefreight.com/ltl/apps/GetServiceCenterDetails?zip=78390&country=MX","SAN LUIS POTOSI, SL","COL. EL ROSARIO","GUADALAJARA","SL","78390","MX","566-SLP","(800)333-7400","<MISSING>","<MISSING>","<MISSING>","www.tforcefreight.com","<MISSING>","<MISSING>","page_url"
"https://www.tforcefreight.com/ltl/apps/GetServiceCenterDetails?zip=80299&country=MX","CULIACAN, SI","COL. EL ROSARIO","GUADALAJARA","SI","80299","MX","542-CUL","(800)333-7400","<MISSING>","<MISSING>","<MISSING>","www.tforcefreight.com","<MISSING>","<MISSING>","page_url"
"https://www.tforcefreight.com/ltl/apps/GetServiceCenterDetails?zip=81200&country=MX","LOS MOCHIS, SI","COL. EL ROSARIO","GUADALAJARA","SI","81200","MX","269-LMC","(800)333-7400","<MISSING>","<MISSING>","<MISSING>","www.tforcefreight.com","<MISSING>","<MISSING>","page_url"
"https://www.tforcefreight.com/ltl/apps/GetServiceCenterDetails?zip=82110&country=MX","MAZATLAN, SI","COL. EL ROSARIO","GUADALAJARA","SI","82110","MX","552-MAZ","(800)333-7400","<MISSING>","<MISSING>","<MISSING>","www.tforcefreight.com","<MISSING>","<MISSING>","page_url"
"https://www.tforcefreight.com/ltl/apps/GetServiceCenterDetails?zip=85000&country=MX","CIUDAD OBREGON, SO","CALLE SUFRAGIO EFECTIVO #698 N","CIUDAD OBREGON","SO","85000","MX","980-COB","(800)333-7400","<MISSING>","<MISSING>","<MISSING>","www.tforcefreight.com","<MISSING>","<MISSING>","page_url"
"https://www.tforcefreight.com/ltl/apps/GetServiceCenterDetails?zip=85340&country=MX","GUAYMAS, SO","NORTE KM 129.5; BODEGA 2","GUAYMAS","SO","85340","MX","326-GYS","(800)333-7400","<MISSING>","<MISSING>","<MISSING>","www.tforcefreight.com","<MISSING>","<MISSING>","page_url"
"https://www.tforcefreight.com/ltl/apps/GetServiceCenterDetails?zip=83280&country=MX","HERMOSILLO, SO","AV. BACHILLERES # 34","HERMOSILLO","SO","83280","MX","979-HMS","(800)333-7400","<MISSING>","<MISSING>","<MISSING>","www.tforcefreight.com","<MISSING>","<MISSING>","page_url"
"https://www.tforcefreight.com/ltl/apps/GetServiceCenterDetails?zip=84062&country=MX","NOGALES, SO","AV. BACHILLERES # 34","HERMOSILLO","SO","84062","MX","559-NOG","(800)333-7400","<MISSING>","<MISSING>","<MISSING>","www.tforcefreight.com","<MISSING>","<MISSING>","page_url"
"https://www.tforcefreight.com/ltl/apps/GetServiceCenterDetails?zip=86010&country=MX","VILLAHERMOSA, TA","FRACCIONAMIENTO LAS LAGUNAS","VILLAHERMOSA","TA","86010","MX","230-VSA","(800)333-7400","<MISSING>","<MISSING>","<MISSING>","www.tforcefreight.com","<MISSING>","<MISSING>","page_url"
"https://www.tforcefreight.com/ltl/apps/GetServiceCenterDetails?zip=89109&country=MX","ALTAMIRA, TM","COL. EL MILAGRO","MONTERREY","TM","89109","MX","536-ALT","(800)333-7400","<MISSING>","<MISSING>","<MISSING>","www.tforcefreight.com","<MISSING>","<MISSING>","page_url"
"https://www.tforcefreight.com/ltl/apps/GetServiceCenterDetails?zip=87390&country=MX","MATAMOROS, TM","COL. EL MILAGRO","MONTERREY","TM","87390","MX","551-MAT","(800)333-7400","<MISSING>","<MISSING>","<MISSING>","www.tforcefreight.com","<MISSING>","<MISSING>","page_url"
"https://www.tforcefreight.com/ltl/apps/GetServiceCenterDetails?zip=88176&country=MX","NUEVO LAREDO, TM","KM 14.2 COL EJIDO LA CRUZ","NUEVO LAREDO","TM","88176","MX","558-NLD","(800)333-7400","<MISSING>","<MISSING>","<MISSING>","www.tforcefreight.com","<MISSING>","<MISSING>","page_url"
"https://www.tforcefreight.com/ltl/apps/GetServiceCenterDetails?zip=88295&country=MX","NUEVO LAREDO, TM","KM 14.2 COL EJIDO LA CRUZ","NUEVO LAREDO","TM","88295","MX","236-NUE","(800)333-7400","<MISSING>","<MISSING>","<MISSING>","www.tforcefreight.com","<MISSING>","<MISSING>","page_url"
"https://www.tforcefreight.com/ltl/apps/GetServiceCenterDetails?zip=88740&country=MX","REYNOSA, TM","COL. EL MILAGRO","MONTERREY","TM","88740","MX","565-REY","(800)333-7400","<MISSING>","<MISSING>","<MISSING>","www.tforcefreight.com","<MISSING>","<MISSING>","page_url"
"https://www.tforcefreight.com/ltl/apps/GetServiceCenterDetails?zip=94500&country=MX","CORDOBA, VL","COL PENON DE LOS BANOS","CIUDAD DE MEXICO","VL","94500","MX","540-COR","(800)333-7400","<MISSING>","<MISSING>","<MISSING>","www.tforcefreight.com","<MISSING>","<MISSING>","page_url"
"https://www.tforcefreight.com/ltl/apps/GetServiceCenterDetails?zip=96380&country=MX","COATZACOALCOS, VL","COL. EL MILAGRO","MONTERREY","VL","96380","MX","483-CTZ","(800)333-7400","<MISSING>","<MISSING>","<MISSING>","www.tforcefreight.com","<MISSING>","<MISSING>","page_url"
"https://www.tforcefreight.com/ltl/apps/GetServiceCenterDetails?zip=91110&country=MX","XALAPA, VL","COL PENON DE LOS BANOS","CIUDAD DE MEXICO","VL","91110","MX","548-JAL","(800)333-7400","<MISSING>","<MISSING>","<MISSING>","www.tforcefreight.com","<MISSING>","<MISSING>","page_url"
"https://www.tforcefreight.com/ltl/apps/GetServiceCenterDetails?zip=93308&country=MX","POZA RICA, VL","COL. PRIMAVERA","POZA RICA DE HIDALGO","VL","93308","MX","319-POZ","(800)333-7400","<MISSING>","<MISSING>","<MISSING>","www.tforcefreight.com","<MISSING>","<MISSING>","page_url"
"https://www.tforcefreight.com/ltl/apps/GetServiceCenterDetails?zip=97138&country=MX","MERIDA, YC","COL PENON DE LOS BANOS","CIUDAD DE MEXICO","YC","97138","MX","554-MER","(800)333-7400","<MISSING>","<MISSING>","<MISSING>","www.tforcefreight.com","<MISSING>","<MISSING>","page_url"
"https://www.tforcefreight.com/ltl/apps/GetServiceCenterDetails?zip=98605&country=MX","ZACATECAS, ZT","COL. EL ROSARIO","GUADALAJARA","ZT","98605","MX","564-ACA","(800)333-7400","<MISSING>","<MISSING>","<MISSING>","www.tforcefreight.com","<MISSING>","<MISSING>","page_url"
